name,library_system,latitude,longitude,address,city,zip_code,county,phone
Banning Library District,Banning Library District,33.9291,-116.8771,21 W. Nicolet St.,Banning,92220,Riverside,(951) 849-3192
Brawley Public Library,Brawley Public Library,32.97843,-115.53481,400 Main St.,Brawley,92227,Imperial,(760) 344-1891
Del Rio Branch,Brawley Public Library,32.97574,-115.51728,1501 I St.,Brawley,92227,Imperial,(760) 344-1891
Camarena Memorial Public Library,Camarena Memorial Public Library,32.67527,-115.48765,850 Encinas Avenue,Calexico,92231,Imperial,(760) 768-2170
Carnegie Technology Center Branch,Camarena Memorial Public Library,32.66957,-115.49265,420 Heber Ave.,Calexico,92231,Imperial,(760) 357-5525
Dove Library,Carlsbad City Library,33.10543,-117.26986,1775 Dove Lane,Carlsbad,92011,San Diego,(760) 602-2038
Georgina Cole Library,Carlsbad City Library,33.16495,-117.34051,1250 Carlsbad Village Drive,Carlsbad,92008,San Diego,(760) 434-2870
Carlsbad City Library Learning Center,Carlsbad City Library,33.15934,-117.33858,3368 Eureka Place,Carlsbad,92008,San Diego,(760) 931-4500
Civic Center Branch,Chula Vista Public Library,32.64094,-117.08336,365 F St.,Chula Vista,91910,San Diego,(619) 691-5069
Otay Ranch Library,Chula Vista Public Library,32.62384,-116.96698,2015 Birch Rd,Chula Vista,91915,San Diego,(619) 397-5740
South Chula Vista Library,Chula Vista Public Library,32.60191,-117.06855,389 Orange Avenue,Chula Vista,91911,San Diego,(619) 585-5755
Coronado Public Library,Coronado Public Library,32.6912,-117.17767,640 Orange Ave.,Coronado,92118,San Diego,(619) 522-7390
Community Center Branch Library,El Centro Public Library,32.79031,-115.54382,375 S. First St.,El Centro,92243,Imperial,(760) 336-8977
El Centro Public Library,El Centro Public Library,32.80247,-115.57161,1140 N. Imperial Ave.,El Centro,92243,Imperial,(760) 337-4565
Escondido Pioneer Room and Computer Center,Escondido Public Library,33.1206,-117.07925,247 South Kalmia Street,Escondido,92025,San Diego,(760) 839-4315
Escondido Public Library,Escondido Public Library,33.12082,-117.07987,239 S. Kalmia St.,Escondido,92025,San Diego,(760) 839-4684
Hemet Public Library,Hemet Public Library,33.74958,-116.96974,300 E. Latham Ave,Hemet,92543,Riverside,(951) 765-2440
Calipatria Branch Library,Imperial County Library,33.12545,-115.51724,105 S. Lake,Calipatria,92233,Imperial,(760) 348-2630
Heber Branch Library,Imperial County Library,32.73356,-115.5297,1132 Heber Ave.,Heber,92249,Imperial,(442) 265-7131
Holtville Branch Library,Imperial County Library,32.81307,-115.37984,101 E. Sixth,Holtville,92250,Imperial,(760) 356-2385
Salton City Library,Imperial County Library,33.27718,-115.96427,1209 Van Buren Road,Salton City,92275,Imperial,(760) 604-6956
Imperial Public Library,Imperial Public Library,32.84849,-115.56869,200 W. 9Th St.,Imperial,92251,Imperial,(760) 355-1332
Murrieta Public Library,Murrieta Public Library,33.55772,-117.21088,8 Town Square,Murrieta,92562,Riverside,(951) 304-2665
National City Public Library,National City Public Library,32.6706,-117.10414,1401 National City Blvd.,National City,91950,San Diego,(619) 470-5800
Oceanside Reads Literacy Center,Oceanside Public Library,33.19867,-117.37877,804 Pier View Way #101,Oceanside,92054,San Diego,(760) 435-5680
Mission Branch Library,Oceanside Public Library,33.22597,-117.3285,3861-B Mission Ave.,Oceanside,92054,San Diego,(760) 435-5630
Oceanside Public Library,Oceanside Public Library,33.19753,-117.3805,330 N. Coast Hwy,Oceanside,92054,San Diego,(760) 435-5600
Palm Springs Public Library,Palm Springs Public Library,33.81872,-116.52753,300 S. Sunrise Way,Palm Springs,92262,Riverside,(760) 322-7323
Welwood Murray Memorial Library,Palm Springs Public Library,33.82293,-116.54659,100 S. Palm Canyon Dr,Palm Springs,92262,Riverside,(760) 323-8296
Palo Verde Valley Library District,Palo Verde Valley Library District,33.61785,-114.59772,125 W. Chanslorway,Blythe,92225,Riverside,(760) 922-5371
Rancho Mirage Public Library,Rancho Mirage Public Library,33.74848,-116.42128,71-100 Highway 111,Rancho Mirage,92270,Riverside,(760) 341-7323
Anza Valley Community Library,Riverside County Library System,33.57024,-116.65979,57430 Mitchell Rd,Anza,92539,Riverside,(951) 763-4216
Cabazon Library,Riverside County Library System,33.91042,-116.78098,50425 Carmen Ave,Cabazon,92230,Riverside,(951) 849-8234
Calimesa Library,Riverside County Library System,34.00181,-117.06169,974 Calimesa Blvd,Calimesa,92320,Riverside,(909) 795-9807
Canyon Lake Branch Library,Riverside County Library System,33.67256,-117.25148,31516 Railroad Canyon Rd.,Canyon Lake,92587,Riverside,(951) 244-9181
Cathedral City Branch Library,Riverside County Library System,33.80426,-116.45729,33-520 Date Palm Dr.,Cathedral City,92234,Riverside,(760) 328-4262
Coachella Branch Library,Riverside County Library System,33.67869,-116.17622,1500 Sixth St.,Coachella,92236,Riverside,(760) 398-5148
Desert Hot Springs Branch Library,Riverside County Library System,33.96312,-116.51071,14380 Palm Dr.,Desert Hot Springs,92240,Riverside,(760) 329-5926
Eastvale Community Library,Riverside County Library System,33.95306,-117.56859,7447 Scholar Way,Eastvale,92880,Riverside,(951) 273-1520
El Cerrito Public Library,Riverside County Library System,33.83545,-117.52659,7581 Rudell Road,Corona,92881,Riverside,(951) 270-5012
French Valley Library,Riverside County Library System,33.60863,-117.10909,31526 Skyview Road,Winchester,92596,Riverside,(951) 926-6636
Glen Avon Branch Library,Riverside County Library System,34.0038,-117.48454,9244 Galena,Riverside,92509,Riverside,(951) 685-8121
Grace Mellman Library,Riverside County Library System,33.52667,-117.16062,41000 County Center,Temecula,92591,Riverside,(951) 296-3893
Highgrove Branch Library,Riverside County Library System,34.01541,-117.32322,530 W Center St,Riverside,92507,Riverside,(951) 682-1507
Home Gardens Library,Riverside County Library System,33.87508,-117.52541,3785 Neece Street,Corona,92879,Riverside,(951) 279-2148
Idyllwild Branch Library,Riverside County Library System,33.74369,-116.71378,54401 Village Center Dr,Idyllwild,92549,Riverside,(951) 659-2300
Max T. Mccandless Branch Library Indio,Riverside County Library System,33.71899,-116.21874,200 Civic Center Mall,Indio,92201,Riverside,(760) 347-2383
La Quinta Branch Library,Riverside County Library System,33.6781,-116.2992,78-225 Calle Tampico,La Quinta,92253,Riverside,(760) 564-4767
Altha Merrifield - Lake Elsinore Branch Library,Riverside County Library System,33.66957,-117.33418,600 W. Graham,Lake Elsinore,92530,Riverside,(951) 674-4517
Lake Tamarisk Library,Riverside County Library System,33.738,-115.39228,43880 Lake Tamarisk Dr.,Desert Center,92239,Riverside,(760) 227-3273
Vick Knight Community Library,Riverside County Library System,33.67012,-117.3806,32593 Riverside Dr,Lake Elsinore,92530,Riverside,(951) 678-7083
Robidoux Branch Library,Riverside County Library System,33.99977,-117.41457,5840 Mission Blvd,Riverside,92509,Riverside,(951) 682-5485
Mead Valley Public Library,Riverside County Library System,33.83396,-117.28676,21580 Oakwood Street,Perris,92570,Riverside,(951) 943-4727
Mecca-North Shore Branch Library,Riverside County Library System,33.5696,-116.07394,91260 Avenue 66,Mecca,92254,Riverside,(760) 396-2363
Menifee Library,Riverside County Library System,33.67582,-117.15935,28798 La Piedra Rd,Menifee,92584,Riverside,(951) 679-2527
Norco Branch Library,Riverside County Library System,33.92926,-117.55944,3240 Hamner Ave.,Norco,92860,Riverside,(951) 735-5329
Nuview Branch Library,Riverside County Library System,33.82403,-117.12894,29990 Lakeview Rd.,Nuevo,92567,Riverside,(951) 928-0769
Palm Desert Branch Library,Riverside County Library System,33.72999,-116.38628,73-300 Fred Waring Dr.,Palm Desert,92260,Riverside,(760) 346-6552
Perris Branch Library,Riverside County Library System,33.786,-117.22745,163 E. San Jacinto,Perris,92570,Riverside,(951) 657-2358
San Jacinto Branch Library,Riverside County Library System,33.78222,-116.95866,595 S. San Jacinto Ave.,San Jacinto,92583,Riverside,(951) 654-8635
Sun City Branch Library,Riverside County Library System,33.71168,-117.18961,26982 Cherry Hills Blvd.,Sun City,92586,Riverside,(951) 679-3534
Temecula Public Library,Riverside County Library System,33.49696,-117.12289,30600 Pauba Road,Temecula,92592,Riverside,(951) 693-8900
Thousand Palms Library,Riverside County Library System,33.82335,-116.39738,31-189 Robert Rd.,Thousand Palms,92276,Riverside,(760) 343-1556
Valle Vista Library,Riverside County Library System,33.74757,-116.89368,25757 Fairview Ave.,Hemet,92544,Riverside,(951) 927-2611
Wildomar Library,Riverside County Library System,33.62368,-117.29052,34303 Mission Trail,Wildomar,92595,Riverside,(951) 471-3855
Woodcrest Community Library,Riverside County Library System,33.87967,-117.37262,16625 Krameria,Riverside,92504,Riverside,(951) 789-7324
4S Ranch,San Diego County Library,33.02112,-117.11439,10433 Reserve Dr,San Diego,92127,San Diego,(858) 673-4697
Alpine Library,San Diego County Library,32.83785,-116.77617,1752 Alpine Boulevard,Alpine,91901,San Diego,(619) 445-4221
Bonita-Sunnyside Library,San Diego County Library,32.66143,-117.03431,4375 Bonita Rd,Bonita,91902,San Diego,(619) 475-4642
Borrego Springs Library,San Diego County Library,33.25607,-116.38006,2580 Country Club Road,Borrego Springs,92004,San Diego,(760) 767-5761
Campo-Morena Village Library,San Diego County Library,32.6244,-116.4754,31356 Highway 94,Campo,91906,San Diego,(619) 478-5945
Cardiff Library,San Diego County Library,33.02203,-117.28144,2081 Newcastle Avenue,Cardiff,92007,San Diego,(760) 753-4027
Casa De Oro Library,San Diego County Library,32.74708,-116.98515,9805 Campo Rd. #180,Spring Valley,91977,San Diego,(619) 463-3236
Crest Library,San Diego County Library,32.80397,-116.86752,105 Juanita Lane,El Cajon,92021,San Diego,(619) 442-7083
Del Mar Library,San Diego County Library,32.95787,-117.26426,1309 Camino Del Mar,Del Mar,92014,San Diego,(858) 755-1666
Descanso Library,San Diego County Library,32.85925,-116.61478,9545 River Drive,Descanso,91916,San Diego,(619) 445-5279
El Cajon Library,San Diego County Library,32.7931,-116.96068,201 E. Douglas Ave,El Cajon,92020,San Diego,(619) 588-3718
Encinitas Library,San Diego County Library,33.04561,-117.29088,540 Cornish Dr.,Encinitas,92024,San Diego,(760) 753-7376
Fallbrook Library,San Diego County Library,33.38142,-117.25324,124 South Mission Road,Fallbrook,92028,San Diego,(760) 731-4650
Fletcher Hills Library,San Diego County Library,32.80188,-116.99777,576 Garfield Ave.,El Cajon,92020,San Diego,(619) 466-1132
Imperial Beach Library,San Diego County Library,32.57683,-117.11632,810 Imperial Beach Blvd.,Imperial Beach,91932,San Diego,(619) 424-6981
Jacumba Library,San Diego County Library,32.61733,-116.18713,44605 Old Highway 80,Jacumba,91934,San Diego,(619) 766-4608
Julian Library,San Diego County Library,33.07699,-116.59651,1850 Highway 78,Julian,92036,San Diego,(760) 765-0370
La Mesa Library,San Diego County Library,32.76623,-117.02328,8074 Allison Ave.,La Mesa,91942,San Diego,(619) 469-2151
Lakeside Library,San Diego County Library,32.8588,-116.92055,9839 Vine St.,Lakeside,92040,San Diego,(619) 443-1811
Lemon Grove Library,San Diego County Library,32.73866,-117.02936,3001 School Lane,Lemon Grove,91945,San Diego,(619) 463-9819
Lincoln Acres Library,San Diego County Library,32.66661,-117.07141,2725 Granger Avenue,National City,91950,San Diego,(619) 475-9880
Pine Valley Library,San Diego County Library,32.82368,-116.53135,28804 Old Highway 80,Pine Valley,91962,San Diego,(619) 473-8022
Potrero Library,San Diego County Library,32.61123,-116.61263,24883 Potrero Valley Road,Potrero,91963,San Diego,(619) 478-5978
Poway Library,San Diego County Library,32.95599,-117.0458,13137 Poway Road,Poway,92064,San Diego,(858) 513-2900
Ramona Library,San Diego County Library,33.03997,-116.87314,1275 Main Street,Ramona,92065,San Diego,(760) 788-5270
Rancho San Diego Library,San Diego County Library,32.74941,-116.92902,11555 Via Rancho San Diego,El Cajon,92019,San Diego,(619) 660-5370
Rancho Santa Fe Library,San Diego County Library,33.021,-117.20555,17040 Avenida De Acacias,Rancho Santa Fe,92067,San Diego,(858) 756-2512
San Marcos Library,San Diego County Library,33.14124,-117.16053,2 Civic Center Drive,San Marcos,92069,San Diego,(760) 891-3000
Santee Library,San Diego County Library,32.84504,-116.99741,9225 Carlton Hills Blvd. #17,Santee,92071,San Diego,(619) 448-1863
Solana Beach Library,San Diego County Library,32.99443,-117.2626,157 Stevens Avenue,Solana Beach,92075,San Diego,(858) 755-1404
Spring Valley Library,San Diego County Library,32.71231,-117.0024,836 Kempton Street,Spring Valley,91977,San Diego,(619) 463-3006
Valley Center Library,San Diego County Library,33.24255,-117.02446,29200 Cole Grade Road,Valley Center,92082,San Diego,(760) 749-1305
Vista Library,San Diego County Library,33.20192,-117.23264,700 Eucalyptus Ave.,Vista,92084,San Diego,(760) 643-5100
Allied Gardens / Benjamin Branch Library,San Diego Public Library,32.79311,-117.08148,5188 Zion Ave.,San Diego,92120,San Diego,(619) 533-3970
Balboa Branch Library,San Diego Public Library,32.82236,-117.17495,4255 Mt. Abernathy Ave.,San Diego,92117,San Diego,(858) 573-1390
Mountain View/Beckwourth Branch Library,San Diego Public Library,32.69803,-117.10262,721 San Pasqual St.,San Diego,92113,San Diego,(619) 527-3404
Carmel Mountain Ranch Branch Library,San Diego Public Library,32.98166,-117.07375,12095 World Trade Dr.,San Diego,92128,San Diego,(858) 538-8181
Carmel Valley Branch Library,San Diego Public Library,32.95224,-117.23069,3919 Townsgate Dr.,San Diego,92130,San Diego,(858) 552-1668
City Heights / Weingart Branch,San Diego Public Library,32.74745,-117.10037,3795 Fairmount Ave.,San Diego,92105,San Diego,(619) 641-6100
Clairemont Branch Library,San Diego Public Library,32.79363,-117.194,2920 Burgener Blvd.,San Diego,92110,San Diego,(858) 581-9935
College-Rolando Branch Library,San Diego Public Library,32.76937,-117.0561,6600 Montezuma Road,San Diego,92115,San Diego,(619) 533-3902
Kensington-Normal Heights Branch Library,San Diego Public Library,32.76307,-117.10679,4121 Adams Ave.,San Diego,92116,San Diego,(619) 533-3974
Linda Vista Branch Library,San Diego Public Library,32.78329,-117.17002,2160 Ulric St.,San Diego,92111,San Diego,(858) 573-1399
Logan Heights Branch Library,San Diego Public Library,32.69997,-117.13319,567 S. 28Th St.,San Diego,92113,San Diego,(619) 533-3968
"Valencia/Malcolm X Library & Performing Arts Center, Valencia",San Diego Public Library,32.71076,-117.08391,5148 Market St.,San Diego,92114,San Diego,(619) 527-3405
Mira Mesa Branch Library,San Diego Public Library,32.91522,-117.14266,8405 New Salem St.,San Diego,92126,San Diego,(858) 538-8165
Mission Hills Branch Library,San Diego Public Library,32.7496,-117.17196,925 W. Washington Street,San Diego,92103,San Diego,(619) 692-4910
Mission Valley,San Diego Public Library,32.77926,-117.12689,2123 Fenton Pkwy,San Diego,92108,San Diego,(858) 487-3751
North Clairemont Branch Library,San Diego Public Library,32.82837,-117.2065,4616 Clairemont Dr.,San Diego,92117,San Diego,(858) 581-9931
North Park Branch Library,San Diego Public Library,32.7472,-117.1268,3795 31St St.,San Diego,92104,San Diego,(619) 533-3972
North University Community Branch Library,San Diego Public Library,32.86762,-117.19917,8820 Judicial Drive,San Diego,92122,San Diego,(858) 581-9637
Oak Park Branch Library,San Diego Public Library,32.73505,-117.08008,2802 54Th St.,San Diego,92105,San Diego,(619) 527-3406
Ocean Beach Branch Library,San Diego Public Library,32.74548,-117.24722,4801 Santa Monica Ave.,San Diego,92107,San Diego,(619) 531-1532
Otay Mesa-Nestor Branch Library,San Diego Public Library,32.57668,-117.06796,3003 Coronado Ave.,San Diego,92154,San Diego,(619) 424-0474
Pacific Beach / Earl & Birdie Taylor Branch Library,San Diego Public Library,32.79421,-117.24993,4275 Cass St.,San Diego,92109,San Diego,(858) 581-9934
Paradise Hills Branch Library,San Diego Public Library,32.67267,-117.06118,5922 Rancho Hills Dr.,San Diego,92139,San Diego,(619) 527-3461
Point Loma/Hervey Branch Libray,San Diego Public Library,32.74012,-117.22944,3701 Voltaire Street,San Diego,92107,San Diego,(619) 531-1539
Rancho Bernardo Branch Library,San Diego Public Library,33.02492,-117.07541,17110 Bernardo Center Dr.,San Diego,92128,San Diego,(858) 538-8163
Rancho Penasquitos Branch Library,San Diego Public Library,32.95946,-117.12209,13355 Salmon River Rd.,San Diego,92129,San Diego,(858) 538-8159
La Jolla / Riford Branch Library,San Diego Public Library,32.84092,-117.27615,7555 Draper Avenue,La Jolla,92037,San Diego,(858) 552-1657
San Carlos Branch Library,San Diego Public Library,32.802,-117.04057,7265 Jackson Dr.,San Diego,92119,San Diego,(619) 527-3430
San Diego Central Library,San Diego Public Library,32.70821,-117.15428,820 E St.,San Diego,92101,San Diego,(619) 236-5830
San Ysidro Branch Library,San Diego Public Library,32.55813,-117.04348,4235 Beyer Blvd.,San Diego,92173,San Diego,(619) 424-0475
Scripps Miramar Ranch Library Center,San Diego Public Library,32.91124,-117.10532,10301 Scripps Lake Drive,San Diego,92131,San Diego,(858) 538-8158
Serra Mesa Branch Library,San Diego Public Library,32.80919,-117.13367,9005 Aero Drive,San Diego,92123,San Diego,(858) 573-1396
Skyline Hills Branch Library,San Diego Public Library,32.69715,-117.02661,7900 Paradise Valley Road,San Diego,92139,San Diego,(619) 527-3485
Tierrasanta Branch Library,San Diego Public Library,32.82083,-117.09805,4985 La Cuenta Dr.,San Diego,92124,San Diego,(858) 573-1384
University Community Branch Library,San Diego Public Library,32.85403,-117.20096,4155 Governor Dr.,San Diego,92122,San Diego,(858) 552-1655
University Heights Branch Library,San Diego Public Library,32.75384,-117.14591,4193 Park Blvd.,San Diego,92103,San Diego,(619) 692-4912
