Name,Library System,Latitude,Longitude,Address,City,Zip Code,County,Phone
A. K. Smiley Public Library,A. K. Smiley Public Library,34.05408,-117.18396,125 W. Vine St.,Redlands,92373,San Bernardino,(909) 798-7565
Albany Library,Alameda County Library,37.88797,-122.29299,1247 Marin Avenue,Albany,94706,Alameda,(510) 526-3720
Castro Valley Library,Alameda County Library,37.69298,-122.07105,3600 Norbridge Ave.,Castro Valley,94546,Alameda,(510) 667-7900
Centerville Library,Alameda County Library,37.56800,-122.02226,3801 Nicolet Ave.,Fremont,94536,Alameda,(510) 795-2629
Cherryland Library,Alameda County Library,37.68415,-122.11210,278 Hampton Road,Hayward,94541,Alameda,(510) 626-8522
Dublin Library,Alameda County Library,37.70278,-121.91895,200 Civic Plaza,Dublin,94568,Alameda,(925) 828-1315
Fremont Main Library,Alameda County Library,37.55082,-121.97098,2400 Stevenson Blvd.,Fremont,94538,Alameda,(510) 745-1401
Irvington Library,Alameda County Library,37.52198,-121.96477,41825 Greenpark Dr.,Fremont,94538,Alameda,(510) 795-2631
Newark Library,Alameda County Library,37.53458,-122.03038,37055 Newark Blvd.,Newark,94560,Alameda,(510) 795-2627
Niles Library,Alameda County Library,37.57603,-121.97813,150 I St.,Fremont,94536,Alameda,(510) 795-2626
San Lorenzo Library,Alameda County Library,37.68106,-122.12595,395 Paseo Grande,San Lorenzo,94580,Alameda,(510) 670-6283
Union City Library,Alameda County Library,37.58811,-122.02718,34007 Alvarado-Niles Rd.,Union City,94587,Alameda,(510) 745-1464
Alameda Free Library,Alameda Free Library,37.76681,-122.24243,1550 Oak St,Alameda,94501,Alameda,(510) 747-7747
Bay Farm Island Branch,Alameda Free Library,37.73696,-122.24155,3221 Mecartney Rd.,Alameda,94502,Alameda,(510) 747-7787
West End Branch,Alameda Free Library,37.77340,-122.27366,788 Santa Clara Ave.,Alameda,94501,Alameda,(510) 747-7767
Alhambra Public Library,Alhambra Civic Center Library,34.09307,-118.12754,101 S. First St.,Alhambra,91801,Los Angeles,(626) 570-5008
Alpine County Library,Alpine County Library/Archives,38.69329,-119.78230,270 Laramie St.,Markleeville,96120,Alpine,(530) 694-2120
Bear Valley Library Station,Alpine County Library/Archives,38.46581,-120.03883,367 Creekside Dr.,Bear Valley,95223,Alpine,(209) 753-6219
Altadena Library District,Altadena Library District,34.18916,-118.13718,600 E. Mariposa St.,Altadena,91001,Los Angeles,(626) 798-0833
Bob Lucas Memorial Library and Literacy Center,Altadena Library District,34.19132,-118.15896,2659 N. Lincoln Ave.,Altadena,91001,Los Angeles,(626) 798-8338
Amador County Library,Amador County Library,38.35405,-120.77652,530 Sutter St.,Jackson,95642,Amador,(209) 223-6400
Ione Branch Library,Amador County Library,38.35304,-120.93291,25 East Main St.,Ione,95640,Amador,(209) 274-2560
Pine Grove Branch Library,Amador County Library,38.41344,-120.65778,19889 Hwy 88,Pine Grove,95665,Amador,(209) 296-3111
Pioneer Branch Library,Amador County Library,38.44316,-120.55717,25070 Buckhorn Ridge Rd.,Pioneer,95666,Amador,(209) 295-7330
Plymouth Branch,Amador County Library,38.48120,-120.84850,9375 Main St.,Plymouth,95669,Amador,(209) 245-6476
Anaheim Public Library - Central,Anaheim Public Library,33.83150,-117.91932,500 W. Broadway,Anaheim,92805,Orange,(714) 765-1880
Anaheim Heritage Center @ The Muzeo,Anaheim Public Library,33.83358,-117.91362,241 S. Anaheim Blvd.,Anaheim,92805,Orange,(714) 765-6453
Canyon Hills Branch,Anaheim Public Library,33.84508,-117.78544,400 Scout Trail,Anaheim,92807,Orange,(714) 765-6444
East Anaheim Branch,Anaheim Public Library,33.86880,-117.74636,8201 E. Santa Ana Canyon Rd.,Anaheim,92808,Orange,(714) 765-3887
Euclid Branch,Anaheim Public Library,33.81431,-117.94106,1340 S. Euclid,Anaheim,92802,Orange,(714) 765-3625
Haskett Branch,Anaheim Public Library,33.82820,-117.97862,2650 W. Broadway,Anaheim,92804,Orange,(714) 765-5075
Ponderosa Joint-Use Library,Anaheim Public Library,33.79542,-117.90413,240 E. Orangewood Ave.,Anaheim,92802,Orange,(714) 740-0202
Sunkist Branch,Anaheim Public Library,33.82814,-117.88100,901 S. Sunkist,Anaheim,92806,Orange,(714) 765-3576
Arcadia Public Library,Arcadia Public Library,34.12846,-118.03187,20 W. Duarte Road,Arcadia,91006,Los Angeles,(626) 821-5567
Azusa City Library,Azusa City Library,34.13481,-117.90540,729 N. Dalton Ave.,Azusa,91702,Los Angeles,(626) 812-5232
Banning Library District,Banning Library District,33.92910,-116.87710,21 W. Nicolet St.,Banning,92220,Riverside,(951) 849-3192
Beaumont Library District,Beaumont Library District,33.93201,-116.98110,125 E. Eighth St.,Beaumont,92223,Riverside,(951) 845-1357
Belvedere-Tiburon Library,Belvedere-Tiburon Library,37.87709,-122.46145,1501 Tiburon Blvd,Tiburon,94920,Marin,(415) 789-2665
Benicia Public Library,Benicia Public Library,38.05340,-122.15447,150 E. L St.,Benicia,94510,Solano,(707) 746-4343
Berkeley Public Library - Central,Berkeley Public Library,37.86820,-122.26849,2090 Kittredge St.,Berkeley,94704,Alameda,(510) 981-6100
Claremont Branch Library,Berkeley Public Library,37.85663,-122.25436,2940 Benvenue Ave.,Berkeley,94705,Alameda,(510) 981-6280
North Branch Library,Berkeley Public Library,37.88545,-122.27545,1170 The Alameda,Berkeley,94707,Alameda,(510) 981-6250
South Branch Library,Berkeley Public Library,37.85640,-122.27093,1901 Russell St.,Berkeley,94703,Alameda,(510) 981-6260
West Branch Library,Berkeley Public Library,37.86956,-122.29091,1125 University Ave.,Berkeley,94702,Alameda,(510) 981-6270
Beverly Hills Public Library,Beverly Hills Public Library,34.07305,-118.39938,444 N. Rexford Dr.,Beverly Hills,90210,Los Angeles,(310) 288-2220
Roxbury Book Nook,Beverly Hills Public Library,34.05857,-118.40614,401 S. Roxbury Dr.,Beverly Hills,90212,Los Angeles,(310) 285-6849
Blanchard Community Library,Blanchard/Santa Paula Public Library District,34.35382,-119.06408,119 N. Eighth St.,Santa Paula,93060,Ventura,(805) 525-3615
Brawley Public Library,Brawley Public Library,32.97843,-115.53481,400 Main St.,Brawley,92227,Imperial,(760) 344-1891
Del Rio Branch,Brawley Public Library,32.97574,-115.51728,1501 I St.,Brawley,92227,Imperial,(760) 344-1891
Buena Park Library District,Buena Park Library District,33.84610,-118.00845,7150 La Palma Ave.,Buena Park,90620,Orange,(714) 826-4100
Buena Vista Branch,Burbank Public Library,34.16413,-118.33021,300 N. Buena Vista Street,Burbank,91505,Los Angeles,(818) 238-5620
Burbank Public Library,Burbank Public Library,34.18382,-118.30647,110 N. Glenoaks Blvd.,Burbank,91502,Los Angeles,(818) 238-5551
Northwest Branch,Burbank Public Library,34.18509,-118.34752,3323 W. Victory Blvd.,Burbank,91505,Los Angeles,(818) 238-5640
Burlingame Main Library,Burlingame Public Library,37.57924,-122.34928,480 Primrose Road,Burlingame,94010,San Mateo,(650) 558-7474
Easton Branch,Burlingame Public Library,37.58393,-122.37157,1800 Easton Drive,Burlingame,94010,San Mateo,(650) 340-6180
Biggs Branch,Butte County Library,39.41350,-121.71032,464A B St.,Biggs,95917,Butte,(530) 552-5652
Oroville Branch,Butte County Library,39.50647,-121.55279,1820 Mitchell Avenue,Oroville,95966,Butte,(530) 552-5652
Chico Branch,Butte County Library,39.74383,-121.83411,1108 Sherman Avenue,Chico,95926,Butte,(530) 552-5652
Durham Branch,Butte County Library,39.64898,-121.80951,2545 Durham Dayton Hwy,Durham,95938,Butte,(530) 552-5652
Gridley Branch,Butte County Library,39.36669,-121.69109,299 Spruce Street,Gridley,95948,Butte,(530) 552-5652
Paradise Branch,Butte County Library,39.75799,-121.60616,5922 Clark Road,Paradise,95969,Butte,(530) 552-5652
Calabasas City Library,Calabasas City Library,34.15259,-118.64658,200 Civic Center Way,Calabasas,91302,Los Angeles,(818) 225-7616
Angels Camp Branch,Calaveras County Library,38.08614,-120.56645,426 N. Main Street,Angels Camp,95222,Calaveras,(209) 736-2198
Arnold Branch,Calaveras County Library,38.25789,-120.34738,1065 Blagen Road,Arnold,95223,Calaveras,(209) 795-1009
Calaveras County Library,Calaveras County Library,38.18970,-120.66319,1299 Gold Hunter Road,San Andreas,95249,Calaveras,(209) 754-6510
Copperopolis Branch Library,Calaveras County Library,37.96976,-120.62597,Suite 106 Lake Tulloch Plaza,Copperopolis,95228,Calaveras,(209) 785-0920
Mokelumne Hill Branch Library,Calaveras County Library,38.30159,-120.70567,8328 Main St.,Mokelumne Hill,95245,Calaveras,(209) 286-0507
Murphys Branch,Calaveras County Library,38.13742,-120.45964,480 Park Lane,Murphys,95247,Calaveras,(209) 728-3036
Valley Springs Branch,Calaveras County Library,38.19105,-120.83253,240 Pine St.,Valley Springs,95252,Calaveras,(209) 772-1318
West Point Branch Library,Calaveras County Library,38.39866,-120.52643,54 Bald Mountain Road,West Point,95255,Calaveras,(209) 293-7020
Camarena Memorial Public Library,Camarena Memorial Public Library,32.67527,-115.48765,850 Encinas Avenue,Calexico,92231,Imperial,(760) 768-2170
Carnegie Technology Center Branch,Camarena Memorial Public Library,32.66957,-115.49265,420 Heber Ave.,Calexico,92231,Imperial,(760) 357-5525
Camarillo Public Library,Camarillo Public Library,34.24317,-119.01390,4101 Las Posas Rd,Camarillo,93010,Ventura,(805) 388-5222
Dove Library,Carlsbad City Library,33.10543,-117.26986,1775 Dove Lane,Carlsbad,92011,San Diego,(760) 602-2038
Georgina Cole Library,Carlsbad City Library,33.16495,-117.34051,1250 Carlsbad Village Drive,Carlsbad,92008,San Diego,(760) 434-2870
Carlsbad City Library Learning Center,Carlsbad City Library,33.15934,-117.33858,3368 Eureka Place,Carlsbad,92008,San Diego,(760) 931-4500
Carpinteria Community Library,Carpinteria Community Library,34.39744,-119.51704,5141 Carpinteria Ave.,Carpinteria,93013,Santa Barbara,(805) 684-4314
Cerritos Library,Cerritos Public Library,33.86705,-118.06474,18025 Bloomfield Ave.,Cerritos,90703,Los Angeles,(562) 916-1350
Civic Center Branch,Chula Vista Public Library,32.64094,-117.08336,365 F St.,Chula Vista,91910,San Diego,(619) 691-5069
Otay Ranch Library,Chula Vista Public Library,32.62384,-116.96698,2015 Birch Rd,Chula Vista,91915,San Diego,(619) 397-5740
South Chula Vista Library,Chula Vista Public Library,32.60191,-117.06855,389 Orange Avenue,Chula Vista,91911,San Diego,(619) 585-5755
Bandini Branch,City Of Commerce Public Library,34.00516,-118.16498,2269 S. Atlantic Blvd,Commerce,90040,Los Angeles,(323) 780-1176
Bristow Park Branch,City Of Commerce Public Library,34.01304,-118.16923,1466 S. Mcdonnell Ave.,Commerce,90040,Los Angeles,(323) 265-1787
City Of Commerce Rosewood Library,City Of Commerce Public Library,34.00033,-118.15669,5655 Jillson St.,Commerce,90040,Los Angeles,(323) 722-6660
Veterans Branch,City Of Commerce Public Library,33.98624,-118.12455,6134 S. Greenwood Ave.,Commerce,90040,Los Angeles,(562) 927-1516
Coalinga Library,Coalinga-Huron Library District,36.14141,-120.36094,305 N. 4Th St.,Coalinga,93210,Fresno,(559) 935-1058
Huron Branch Library,Coalinga-Huron Library District,36.21002,-120.09951,36050 O St.,Huron,93234,Fresno,(559) 945-2284
Colton Main Library,Colton Public Library,34.07177,-117.32120,656 N. 9Th St.,Colton,92324,San Bernardino,(909) 370-5189
Luque Branch Library,Colton Public Library,34.05923,-117.32213,294 E. O St.,Colton,92324,San Bernardino,(909) 370-5182
Arbuckle Branch,Colusa County Free Library,39.01534,-122.05831,610 King St.,Arbuckle,95912,Colusa,(530) 476-2526
Colusa County Free Library,Colusa County Free Library,39.21504,-122.01097,738 Market St.,Colusa,95932,Colusa,(530) 458-7671
Grimes Branch,Colusa County Free Library,39.07426,-121.89432,240 Main,Grimes,95950,Colusa,(530) 437-2428
Maxwell Branch,Colusa County Free Library,39.27647,-122.19219,34 Oak St.,Maxwell,95955,Colusa,(530) 438-2250
Princeton Branch,Colusa County Free Library,39.44839,-122.02692,232 Prince St.,Princeton,95970,Colusa,(530) 439-2235
Stonyford Branch,Colusa County Free Library,39.36893,-122.54819,5080 Stonyford-Lodoga Rd,Stonyford,95979,Colusa,(530) 963-3722
Williams Branch,Colusa County Free Library,39.15352,-122.15185,901 E St.,Williams,95987,Colusa,(530) 473-5955
Antioch Library,Contra Costa County Library,38.00471,-121.81262,501 W. 18Th Street,Antioch,94509,Contra Costa,(925) 757-9224
Bay Point Library,Contra Costa County Library,38.03363,-121.96715,205 Pacifica Avenue,Bay Point,94565,Contra Costa,(925) 458-9597
Brentwood Library,Contra Costa County Library,37.93361,-121.69258,104 Oak Street,Brentwood,94513,Contra Costa,(925) 516-5290
Clayton Community Library,Contra Costa County Library,37.94256,-121.93531,6125 Clayton Road,Clayton,94517,Contra Costa,(925) 673-0659
Concord Library,Contra Costa County Library,37.98159,-122.02519,2900 Salvio Street,Concord,94519,Contra Costa,(925) 646-5455
Crockett Library,Contra Costa County Library,38.05542,-122.22074,991 Loring Avenue,Crockett,94525,Contra Costa,(510) 787-2345
Danville Library,Contra Costa County Library,37.82086,-121.99561,400 Front Street,Danville,94526,Contra Costa,(925) 837-4889
Dougherty Station Library,Contra Costa County Library,37.75391,-121.90973,17017 Bollinger Canyon Rd.,San Ramon,94582,Contra Costa,(925) 973-3380
El Cerrito Library,Contra Costa County Library,37.90841,-122.30398,6510 Stockton Ave.,El Cerrito,94530,Contra Costa,(510) 526-7512
El Sobrante Library,Contra Costa County Library,37.96740,-122.30964,4191 Appian Way,El Sobrante,94803,Contra Costa,(510) 374-3991
Hercules Library,Contra Costa County Library,38.00957,-122.26517,109 Civic Dr.,Hercules,94547,Contra Costa,(510) 245-2420
Kensington Library,Contra Costa County Library,37.91298,-122.28103,61 Arlington Ave.,Kensington,94707,Contra Costa,(510) 524-3043
Lafayette Library,Contra Costa County Library,37.89226,-122.11602,3491 Mt. Diablo Blvd.,Lafayette,94549,Contra Costa,(925) 385-2280
Martinez Library,Contra Costa County Library,38.01795,-122.13418,740 Court St.,Martinez,94553,Contra Costa,(925) 646-2898
Moraga Library,Contra Costa County Library,37.84135,-122.11014,1500 St. Mary'S Rd.,Moraga,94556,Contra Costa,(925) 376-6852
Oakley Library,Contra Costa County Library,37.97065,-121.71803,1050 Neroly Road,Oakley,94561,Contra Costa,(925) 625-2400
Orinda Library,Contra Costa County Library,37.88253,-122.18746,26 Orinda Way,Orinda,94563,Contra Costa,(925) 254-2184
Pinole Library,Contra Costa County Library,37.99242,-122.28499,2935 Pinole Valley Rd.,Pinole,94564,Contra Costa,(510) 758-2741
Pittsburg Library,Contra Costa County Library,38.01874,-121.89090,80 Power Ave.,Pittsburg,94565,Contra Costa,(925) 427-8390
Pleasant Hill Library,Contra Costa County Library,37.93486,-122.06839,100 Gregory Lane,Pleasant Hill,94523,Contra Costa,(925) 646-6434
Prewett Library,Contra Costa County Library,37.96627,-121.77448,4703 Lone Tree Way,Antioch,94531,Contra Costa,(925) 776-3060
Rodeo Library,Contra Costa County Library,38.03525,-122.26842,220 Pacific Ave.,Rodeo,94572,Contra Costa,(510) 799-2606
San Pablo Library,Contra Costa County Library,37.95788,-122.33993,13751 San Pablo Ave.,San Pablo,94806,Contra Costa,(510) 374-3998
San Ramon Library,Contra Costa County Library,37.76433,-121.95327,100 Montgomery St.,San Ramon,94583,Contra Costa,(925) 973-2850
Walnut Creek Library,Contra Costa County Library,37.90132,-122.06026,1644 N. Broadway,Walnut Creek,94596,Contra Costa,(925) 977-3340
Ygnacio Valley Library,Contra Costa County Library,37.92408,-122.01262,2661 Oak Grove Rd.,Walnut Creek,94598,Contra Costa,(925) 938-1481
Corona Public Library,Corona Public Library,33.87499,-117.56804,650 South Main St.,Corona,92882,Riverside,(951) 736-2381
Coronado Public Library,Coronado Public Library,32.69120,-117.17767,640 Orange Ave.,Coronado,92118,San Diego,(619) 522-7390
Covina Public Library,Covina Public Library,34.08820,-117.88745,234 N. Second Ave.,Covina,91723,Los Angeles,(626) 384-5303
Crowell Public Library,Crowell Public Library,34.11901,-118.11269,1890 Huntington Dr.,San Marino,91108,Los Angeles,(626) 300-0777
Bayshore Library,Daly City Public Library,37.70160,-122.41897,460 Martin St.,Daly City,94014,San Mateo,(650) 991-8074
John D. Daly Library,Daly City Public Library,37.70202,-122.46261,134 Hillside Blvd,Daly City,94014,San Mateo,(650) 991-8073
Serramonte Main Library,Daly City Public Library,37.66304,-122.47039,40 Wembley Drive,Daly City,94015,San Mateo,(650) 991-8023
Westlake Library,Daly City Public Library,37.69722,-122.48540,275 Southgate Ave.,Daly City,94015,San Mateo,(650) 991-8071
Del Norte County Library District,Del Norte County Library District,41.75575,-124.20259,190 Price Mall,Crescent City,95531,Del Norte,(707) 464-9793
Smith River Branch,Del Norte County Library District,41.92632,-124.14821,241 First St.,Smith River,95567,Del Norte,(707) 464-7072
Downey City Library,Downey City Library,33.93969,-118.12882,11121 Brookshire Ave.,Downey,90241,Los Angeles,(562) 904-7360
Community Center Branch Library,El Centro Public Library,32.79031,-115.54382,375 S. First St.,El Centro,92243,Imperial,(760) 336-8977
El Centro Public Library,El Centro Public Library,32.80247,-115.57161,1140 N. Imperial Ave.,El Centro,92243,Imperial,(760) 337-4565
Cameron Park Branch,El Dorado County Library,38.65996,-121.00571,2500 Country Club Dr.,Cameron Park,95682,El Dorado,(530) 621-5500
El Dorado County Library,El Dorado County Library,38.72892,-120.82769,345 Fair Lane,Placerville,95667,El Dorado,(530) 621-5540
El Dorado Hills Library,El Dorado County Library,38.67204,-121.06459,7455 Silva Valley Parkway,El Dorado Hills,95762,El Dorado,(916) 358-3500
Georgetown Library,El Dorado County Library,38.90634,-120.83762,6680 Orleans Street,Georgetown,95634,El Dorado,(530) 333-4724
Pollock Pines Library,El Dorado County Library,38.75961,-120.58827,6210 Pony Express Trail,Pollock Pines,95726,El Dorado,(530) 644-2498
South Lake Tahoe Library,El Dorado County Library,38.94450,-119.97356,1000 Rufus Allen Blvd.,South Lake Tahoe,96150,El Dorado,(530) 573-3185
Center Street School Branch Library,El Segundo Public Library,33.92473,-118.40461,700 Center St.,El Segundo,90245,Los Angeles,(310) 615-2680
El Segundo Public Library,El Segundo Public Library,33.92392,-118.41678,111 W. Mariposa Ave.,El Segundo,90245,Los Angeles,(310) 524-2722
High School Branch Library,El Segundo Public Library,33.92487,-118.41538,640 Main St.,El Segundo,90245,Los Angeles,(310) 615-2662
Middle School Branch Library,El Segundo Public Library,33.92020,-118.40464,332 Center Street,El Segundo,90245,Los Angeles,(310) 615-2685
Richmond Street Elementary School Library,El Segundo Public Library,33.92435,-118.41746,615 Richmond St.,El Segundo,90245,Los Angeles,(310) 606-6831
Escondido Pioneer Room and Computer Center,Escondido Public Library,33.12060,-117.07925,247 South Kalmia Street,Escondido,92025,San Diego,(760) 839-4315
Escondido Public Library,Escondido Public Library,33.12082,-117.07987,239 S. Kalmia St.,Escondido,92025,San Diego,(760) 839-4684
"Folsom Public Library, Georgia Murray Building",Folsom Public Library,38.68126,-121.16659,411 Stafford St,Folsom,95630,Sacramento,(916) 355-7374
Auberry Branch Library,Fresno County Public Library,37.07471,-119.48785,33049 Auberry Road,Auberry,93602,Fresno,(559) 855-8523
Bear Mountain Branch Library,Fresno County Public Library,36.73842,-119.25071,30733 E. Kings Canyon Road,Squaw Valley,93675,Fresno,(559) 332-2528
Betty Rodriguez Regional Library,Fresno County Public Library,36.77826,-119.75374,3040 N Cedar Ave,Fresno,93703,Fresno,(559) 600-9245
Big Creek Station,Fresno County Public Library,37.20481,-119.24712,51190 Point Road,Big Creek,93605,Fresno,(559) 893-6614
Biola Station,Fresno County Public Library,36.80497,-120.01755,4885 N. Biola Ave,Biola,93723,Fresno,(559) 843-2001
Caruthers Branch Library,Fresno County Public Library,36.54212,-119.83139,13382 South Henderson Rd.,Caruthers,93609,Fresno,(559) 864-8766
Central Library,Fresno County Public Library,36.73790,-119.78649,2420 Mariposa St.,Fresno,93721,Fresno,(559) 600-7323
Clovis Regional Library,Fresno County Public Library,36.82431,-119.69479,1155 Fifth St.,Clovis,93612,Fresno,(559) 600-9531
Easton Branch Library,Fresno County Public Library,36.65224,-119.79036,25 E. Fantz Ave.,Easton,93706,Fresno,(559) 237-3929
Fig Garden Regional Library,Fresno County Public Library,36.82238,-119.84643,3071 W. Bullard,Fresno,93711,Fresno,(559) 600-4071
Firebaugh Branch Library,Fresno County Public Library,36.85686,-120.45395,1315 O St.,Firebaugh,93622,Fresno,(559) 600-9274
Fowler Branch Library,Fresno County Public Library,36.62743,-119.67776,306 S. 7Th St.,Fowler,93625,Fresno,(559) 600-3114
Gillis Branch Library,Fresno County Public Library,36.78631,-119.81900,629 W. Dakota,Fresno,93705,Fresno,(559) 225-0140
Kerman Branch Library,Fresno County Public Library,36.72740,-120.06133,15081 W. Kearney Plaza,Kerman,93630,Fresno,(559) 846-8804
Kingsburg Branch Library,Fresno County Public Library,36.51481,-119.55325,1399 Draper,Kingsburg,93631,Fresno,(559) 897-3710
Laton Station,Fresno County Public Library,36.43458,-119.68475,6313 Dewoody St.,Laton,93242,Fresno,(559) 923-4554
Literacy Services Center,Fresno County Public Library,36.73790,-119.78649,2420 Mariposa Street,Fresno,93721,Fresno,(559) 600-9240
Mendota Branch Library,Fresno County Public Library,36.74876,-120.38471,1246 Belmont Avenue,Mendota,93640,Fresno,(559) 600-9291
Mosqueda Branch Library,Fresno County Public Library,36.72811,-119.74256,4670 E. Butler,Fresno,93702,Fresno,(559) 600-4072
Orange Cove Branch Library,Fresno County Public Library,36.62425,-119.31530,815 Park Blvd.,Orange Cove,93646,Fresno,(559) 600-9292
Pinedale Branch Library,Fresno County Public Library,36.84050,-119.79422,7170 N. San Pablo,Pinedale,93650,Fresno,(559) 439-0486
Parlier Branch Library,Fresno County Public Library,36.61187,-119.53529,1130 E. Parlier Ave.,Parlier,93648,Fresno,(559) 646-3835
Piedra Station,Fresno County Public Library,36.82035,-119.38052,25385 Trimmer Springs Road,Piedra,93649,Fresno,(559) 787-3266
Politi Branch Library,Fresno County Public Library,36.82225,-119.77366,5771 N. First St.,Fresno,93710,Fresno,(559) 431-6450
Reedley Branch Library,Fresno County Public Library,36.59805,-119.44963,1027 E St.,Reedley,93654,Fresno,(559) 638-2818
Riverdale Branch Library,Fresno County Public Library,36.43112,-119.86162,20975 Malsbary,Riverdale,93656,Fresno,(559) 867-3381
San Joaquin Branch Library,Fresno County Public Library,36.60731,-120.18714,8781 Main St.,San Joaquin,93660,Fresno,(559) 693-2171
Sanger Branch Library,Fresno County Public Library,36.70615,-119.56283,1812 Seventh St.,Sanger,93657,Fresno,(559) 875-2435
Selma Branch Library,Fresno County Public Library,36.56747,-119.60939,2200 Selma St.,Selma,93662,Fresno,(559) 896-3393
Shaver Lake Branch Library,Fresno County Public Library,37.10215,-119.32095,41344 Tollhouse Rd.,Shaver Lake,93664,Fresno,(559) 841-3330
Sunnyside Branch Library,Fresno County Public Library,36.73484,-119.70125,5566 E. Kings Canyon Road,Fresno,93727,Fresno,(559) 600-6594
Talking Book Library For The Blind,Fresno County Public Library,36.75290,-119.79435,770 N. San Pablo Ave.,Fresno,93728,Fresno,(559) 600-3217
Teague Branch Library,Fresno County Public Library,36.80273,-119.88984,4725 N. Polk Ave.,Fresno,93722,Fresno,(559) 274-1005
Tranquillity Station,Fresno County Public Library,36.64951,-120.25132,25561 W Williams St,Tranquillity,93668,Fresno,(559) 698-5158
West Fresno Branch Library,Fresno County Public Library,36.72023,-119.81021,188 E. California Ave,Fresno,93706,Fresno,(559) 455-6066
Woodward Park Regional Library,Fresno County Public Library,36.87160,-119.76658,944 East Perrin Avenue,Fresno,93720,Fresno,(559) 600-3135
Fullerton Main Library,Fullerton Public Library,33.87072,-117.93048,353 W. Commonwealth Ave.,Fullerton,92832,Orange,(714) 738-6380
Brand Library,Glendale Public Library,34.18264,-118.27644,1601 W. Mountain St.,Glendale,91201,Los Angeles,(818) 548-2051
Casa Verdugo Branch Library,Glendale Public Library,34.16326,-118.25545,1151 N. Brand Blvd.,Glendale,91202,Los Angeles,(818) 548-2047
Chevy Chase Branch Library,Glendale Public Library,34.17382,-118.20007,3301 E. Chevy Chase Dr.,Glendale,91206,Los Angeles,(818) 548-2046
"Glendale Library, Arts & Culture",Glendale Public Library,34.14399,-118.25359,222 E. Harvard St.,Glendale,91205,Los Angeles,(818) 548-2021
Grandview Branch Library,Glendale Public Library,34.17041,-118.28551,1535 Fifth St.,Glendale,91201,Los Angeles,(818) 548-2049
Library Connection @ Adams Square,Glendale Public Library,34.13365,-118.24150,1100 East Chevy Chase Drive,Glendale,91205,Los Angeles,(818) 548-3833
Montrose Branch Library,Glendale Public Library,34.20750,-118.23270,2465 Honolulu Ave.,Montrose,91020,Los Angeles,(818) 548-2048
Pacific Park Branch Library,Glendale Public Library,34.13924,-118.26475,501 South Pacific Avenue,Glendale,91204,Los Angeles,(818) 548-3760
Glendora Library & Cultural Center,Glendora Library & Cultural Center,34.13507,-117.86528,140 South Glendora Ave.,Glendora,91741,Los Angeles,(626) 852-4891
Buellton Library,Goleta Valley Library,34.61410,-120.19623,140 W. Hwy 246,Buellton,93427,Santa Barbara,(805) 688-3115
Goleta Valley Library,Goleta Valley Library,34.44760,-119.83012,500 N. Fairview Ave.,Goleta,93117,Santa Barbara,(805) 964-7878
Solvang Library,Goleta Valley Library,34.59651,-120.13611,1745 Mission Drive,Solvang,93463,Santa Barbara,(805) 688-4214
Harrison Memorial Library,Harrison Memorial Library,36.55509,-121.92355,Ocean Ave. & Lincoln Blvd.,Carmel,93921,Monterey,(831) 624-4629
Park Branch Library - Harrison Memorial,Harrison Memorial Library,36.55434,-121.92096,Mission & Sixth St.,Carmel,93921,Monterey,(831) 624-4664
Hayward Public Library,Hayward Public Library,37.67009,-122.08308,888 C St.,Hayward,94541,Alameda,(510) 293-8685
Weekes Branch Library,Hayward Public Library,37.63339,-122.07893,27300 Patrick Ave.,Hayward,94544,Alameda,(510) 782-2155
Hemet Public Library,Hemet Public Library,33.74958,-116.96974,300 E. Latham Ave,Hemet,92543,Riverside,(951) 765-2440
Arcata Library,Humboldt County Library,40.86772,-124.08411,500 Seventh St.,Arcata,95521,Humboldt,(707) 822-5954
Blue Lake Library,Humboldt County Library,40.88254,-123.99199,111 Greenwood Ave.,Blue Lake,95525,Humboldt,(707) 668-4207
Eureka Main Library,Humboldt County Library,40.80594,-124.15731,1313 Third St.,Eureka,95501,Humboldt,(707) 269-1929
Ferndale Library,Humboldt County Library,40.57988,-124.26119,807 Main Street,Ferndale,95536,Humboldt,(707) 786-9559
Fortuna Library,Humboldt County Library,40.59873,-124.15214,775 14Th St.,Fortuna,95540,Humboldt,(707) 725-3460
Garberville Library,Humboldt County Library,40.10235,-123.79211,715 Cedar St.,Garberville,95542,Humboldt,(707) 923-2230
Kim Yerton Memorial Library,Humboldt County Library,41.05005,-123.67829,Loop Road,Hoopa,95546,Humboldt,(530) 625-5082
Mckinleyville Library,Humboldt County Library,40.94419,-124.09981,1606 Pickett Rd.,Mckinleyville,95519,Humboldt,(707) 839-4459
Rio Dell Library,Humboldt County Library,40.50003,-124.10659,715 Wildwood Ave.,Rio Dell,95562,Humboldt,(707) 764-3333
Trinidad Branch Library,Humboldt County Library,41.06203,-124.14118,380 Janis Ct.,Trinidad,95570,Humboldt,(707) 677-0227
Willow Creek (Klamath-Trinity) Library,Humboldt County Library,40.93998,-123.63093,39 Mayfair St,Willow Creek,95573,Humboldt,(530) 629-2146
Banning Library,Huntington Beach Public Library,33.64361,-117.96561,9281 Banning Ave.,Huntington Beach,92646,Orange,(714) 375-5005
Helen Murphy Branch,Huntington Beach Public Library,33.73112,-118.03235,15882 Graham St.,Huntington Beach,92649,Orange,(714) 375-5006
Huntington Beach Central Library,Huntington Beach Public Library,33.70194,-118.00452,7111 Talbert Ave.,Huntington Beach,92648,Orange,(714) 960-8836
Main Street Library,Huntington Beach Public Library,33.66201,-117.99917,525 Main St.,Huntington Beach,92648,Orange,(714) 375-5071
Oak View Branch,Huntington Beach Public Library,33.71155,-117.99416,17251 Oak Lane,Huntington Beach,92647,Orange,(714) 375-5068
Calipatria Branch Library,Imperial County Library,33.12545,-115.51724,105 S. Lake,Calipatria,92233,Imperial,(760) 348-2630
Heber Branch Library,Imperial County Library,32.73356,-115.52970,1132 Heber Ave.,Heber,92249,Imperial,(442) 265-7131
Holtville Branch Library,Imperial County Library,32.81307,-115.37984,101 E. Sixth,Holtville,92250,Imperial,(760) 356-2385
Salton City Library,Imperial County Library,33.27718,-115.96427,1209 Van Buren Road,Salton City,92275,Imperial,(760) 604-6956
Imperial Public Library,Imperial Public Library,32.84849,-115.56869,200 W. 9Th St.,Imperial,92251,Imperial,(760) 355-1332
Crenshaw-Imperial Library,Inglewood Public Library,33.93367,-118.32679,11141 Crenshaw Blvd,Inglewood,90303,Los Angeles,(310) 412-5403
Inglewood Public Library,Inglewood Public Library,33.96227,-118.35560,101 W. Manchester Blvd.,Inglewood,90301,Los Angeles,(310) 412-5380
Big Pine Branch Library,Inyo County Free Library,37.16169,-118.28898,500 S. Main St.,Big Pine,93513,Inyo,(760) 938-2420
Bishop Branch Library,Inyo County Free Library,37.36296,-118.39646,210 Academy Ave.,Bishop,93514,Inyo,(760) 873-5115
Furnace Creek Branch Library,Inyo County Free Library,36.50290,-116.87098,"201 Nevares Road, Cow Creek Road",Death Valley,92328,Inyo,(760) 786-2408
Inyo County Free Library,Inyo County Free Library,36.80357,-118.19962,168 N. Edwards St.,Independence,93526,Inyo,(760) 878-0260
Lone Pine Branch Library,Inyo County Free Library,36.60629,-118.06432,127 Bush Street,Lone Pine,93545,Inyo,(760) 876-5031
Tecopa Branch Library,Inyo County Free Library,35.87135,-116.23271,408 Tecopa Hot Springs Road,Tecopa,92389,Inyo,(760) 852-4171
Irwindale Public Library,Irwindale Public Library,34.10449,-117.93344,5050 N. Irwindale Ave.,Irwindale,91706,Los Angeles,(626) 430-2229
Arvin Branch Library,Kern County Library,35.21035,-118.83370,201 Campus Drive,Arvin,93203,Kern,(661) 854-5934
Baker Branch Library,Kern County Library,35.38347,-118.99084,1400 Baker Street,Bakersfield,93305,Kern,(661) 861-2390
Boron Branch Library,Kern County Library,34.99983,-117.65076,26967 Twenty Mule Team Road,Boron,93516,Kern,(760) 762-5606
Buttonwillow Branch Library,Kern County Library,35.40065,-119.46993,101 Main St,Buttonwillow,93206,Kern,(661) 764-5337
California City Branch Library,Kern County Library,35.12648,-117.95835,9507 California City Blvd.,California City,93505,Kern,(760) 373-4757
Delano Branch Library,Kern County Library,35.76947,-119.24465,925 Tenth Avenue,Delano,93215,Kern,(661) 725-1078
Eleanor N. Wilson Branch Library,Kern County Library,35.33189,-119.02376,1901 Wilson Road,Bakersfield,93304,Kern,(661) 834-4044
Frazier Park Branch Library,Kern County Library,34.81924,-118.94845,3732 Park Drive,Frazier Park,93225,Kern,(661) 245-1267
Holloway-Gonzales Branch Library,Kern County Library,35.35424,-118.99840,506 E. Brundage Lane,Bakersfield,93307,Kern,(661) 861-2083
Beale Memorial Library,Kern County Library,35.37267,-119.01005,701 Truxtun Avenue,Bakersfield,93301,Kern,(661) 868-0701
Kern River Valley Branch Library,Kern County Library,35.63772,-118.46687,7054 Lake Isabella Blvd.,Lake Isabella,93240,Kern,(760) 549-2083
Lamont Branch Library,Kern County Library,35.25642,-118.91128,8304 Segrue Road,Lamont,93241,Kern,(661) 845-3471
Mcfarland Branch Library,Kern County Library,35.67829,-119.23430,500 W. Kern Avenue,Mcfarland,93250,Kern,(661) 792-2318
Mojave Branch Library,Kern County Library,35.04881,-118.16766,15555 O St,Mojave,93501,Kern,(661) 824-2243
Northeast Branch Library,Kern County Library,35.39876,-118.95106,2671 Oswell Street,Bakersfield,93306,Kern,(661) 871-9017
Rathbun Branch Library,Kern County Library,35.42712,-119.02407,200 W. China Grade Loop,Bakersfield,93308,Kern,(661) 393-6431
Ridgecrest Branch Library,Kern County Library,35.62902,-117.66865,131 E. Las Flores Avenue,Ridgecrest,93555,Kern,(760) 384-5870
Rosamond Branch Library,Kern County Library,34.86431,-118.19537,3611 Rosamond Blvd.,Rosamond,93560,Kern,(661) 256-3236
Southwest Branch Library,Kern County Library,35.33934,-119.09553,8301 Ming Avenue,Bakersfield,93311,Kern,(661) 664-7716
Taft Branch Library,Kern County Library,35.14933,-119.45919,27 Cougar Court,Taft,93268,Kern,(661) 763-3294
Tehachapi Branch Library,Kern County Library,35.13055,-118.44759,212 Green Street,Tehachapi,93561,Kern,(661) 822-4938
Wasco Branch Library,Kern County Library,35.59715,-119.33843,1102 -7Th Street,Wasco,93280,Kern,(661) 758-2114
Armona Community Library,Kings County Library,36.31184,-119.70662,11115 C St.,Armona,93202,Kings,(559) 583-5005
Avenal Library,Kings County Library,36.00286,-120.13074,501 E. Kings St.,Avenal,93204,Kings,(559) 386-5741
Corcoran Library,Kings County Library,36.09947,-119.55930,1001-A Chittenden,Corcoran,93212,Kings,(559) 992-3314
Hanford Library,Kings County Library,36.32934,-119.64533,401 N. Douty St.,Hanford,93230,Kings,(559) 582-0261
Kettleman City Library,Kings County Library,36.00686,-119.96023,105 Becky Pease St.,Kettleman City,93239,Kings,(559) 386-9804
Lemoore Library,Kings County Library,36.29999,-119.78752,457 C St.,Lemoore,93245,Kings,(559) 924-2188
Stratford,Kings County Library,36.18941,-119.82352,20300 Main St.,Stratford,93266,Kings,(559) 947-3003
A C Bilbrew Library,LA County Library,33.91608,-118.27230,150 East El Segundo Blvd.,Los Angeles,90061,Los Angeles,(310) 538-3350
Acton Agua Dulce,LA County Library,34.49503,-118.19742,33792 Crown Valley Rd.,Acton,93510,Los Angeles,(661) 269-7101
Agoura Hills Library,LA County Library,34.14458,-118.77568,29901 Ladyface Court,Agoura Hills,91301,Los Angeles,(818) 889-2278
Alondra Library,LA County Library,33.88791,-118.07850,11949 Alondra Blvd.,Norwalk,90650,Los Angeles,(562) 868-7771
Angelo M. Iacoboni Library,LA County Library,33.84869,-118.13339,4990 Clark Ave.,Lakewood,90712,Los Angeles,(562) 866-1777
Anthony Quinn Library,LA County Library,34.04074,-118.18021,3965 Cesar E. Chavez Ave.,Los Angeles,90063,Los Angeles,(323) 264-7715
Artesia Library,LA County Library,33.86038,-118.07718,18801 Elaine Ave.,Artesia,90701,Los Angeles,(562) 865-6614
Avalon Library,LA County Library,33.34311,-118.32717,215 Sumner Ave.,Avalon,90704,Los Angeles,(310) 510-1050
Baldwin Park Library,LA County Library,34.08801,-117.96526,4181 Baldwin Park Blvd.,Baldwin Park,91706,Los Angeles,(626) 962-6947
Bell Gardens Library,LA County Library,33.96666,-118.15053,7110 S. Garfield Ave.,Bell Gardens,90201,Los Angeles,(562) 927-1309
Bell Library,LA County Library,33.97839,-118.18857,4411 East Gage Ave.,Bell,90201,Los Angeles,(323) 560-2149
Carson Library,LA County Library,33.83217,-118.27632,151 East Carson St.,Carson,90745,Los Angeles,(310) 830-0901
Castaic Library,LA County Library,34.49578,-118.62687,27971 Sloan Canyon Road,Castaic,91384,Los Angeles,(661) 257-7410
Charter Oak Library,LA County Library,34.10604,-117.85363,"20540 E. Arrow Hwy., Suite K",Covina,91724,Los Angeles,(626) 339-2151
Chet Holifield Library,LA County Library,33.99329,-118.12009,1060 South Greenwood Ave.,Montebello,90640,Los Angeles,(323) 728-0421
City Terrace Library,LA County Library,34.05598,-118.17808,4025 East City Terrace Dr.,Los Angeles,90063,Los Angeles,(323) 261-0295
Claremont Helen Renwick Library,LA County Library,34.09589,-117.71603,208 North Harvard Ave.,Claremont,91711,Los Angeles,(909) 621-4902
Clifton M. Brakensiek Library,LA County Library,33.88245,-118.12150,9945 E. Flower St.,Bellflower,90706,Los Angeles,(562) 925-5543
Compton Library,LA County Library,33.89544,-118.22571,240 West Compton Blvd.,Compton,90220,Los Angeles,(310) 637-0202
Cudahy Library,LA County Library,33.95940,-118.17460,5218 Santa Ana St.,Cudahy,90201,Los Angeles,(323) 771-1345
Culver City Julian Dixon Library,LA County Library,34.00762,-118.39707,4975 Overland Ave.,Culver City,90230,Los Angeles,(310) 559-1676
Diamond Bar Library,LA County Library,33.99907,-117.83071,21800 Copley Dr.,Diamond Bar,91765,Los Angeles,(909) 861-4978
"Dr. Martin Luther King, Jr. Library",LA County Library,33.86766,-118.26568,17906 South Avalon Blvd.,Carson,90746,Los Angeles,(310) 327-4830
Duarte Library,LA County Library,34.13811,-117.97789,1301 Buena Vista St.,Duarte,91010,Los Angeles,(626) 358-1865
East Los Angeles Library,LA County Library,34.03399,-118.15972,4837 East Third St.,Los Angeles,90022,Los Angeles,(323) 264-0155
East Rancho Dominguez Library,LA County Library,33.89637,-118.19761,4205 East Compton Blvd.,East Rancho Domingue,90221,Los Angeles,(310) 632-6193
El Camino Real Library,LA County Library,34.02369,-118.17777,4264 East Whittier Blvd.,Los Angeles,90023,Los Angeles,(323) 269-8102
El Monte Library,LA County Library,34.06710,-118.03572,3224 Tyler Ave.,El Monte,91731,Los Angeles,(626) 444-9506
Florence Library,LA County Library,33.97450,-118.24512,1610 East Florence Ave.,Los Angeles,90001,Los Angeles,(323) 581-8028
Gardena Mayme Dear Library,LA County Library,33.88218,-118.30752,1731 West Gardena Blvd.,Gardena,90247,Los Angeles,(310) 323-6363
George Nye Jr. Library,LA County Library,33.84622,-118.10329,6600 Del Amo Blvd.,Lakewood,90713,Los Angeles,(562) 421-8497
Graham Library,LA County Library,33.95993,-118.23833,1900 East Firestone Blvd.,Los Angeles,90001,Los Angeles,(323) 582-2903
Hacienda Heights Library,LA County Library,33.99354,-117.96412,16010 La Monde St.,Hacienda Heights,91745,Los Angeles,(626) 968-9356
Hawaiian Gardens Library,LA County Library,33.83117,-118.07802,11940 Carson Street,Hawaiian Gardens,90716,Los Angeles,(562) 496-1212
Hawthorne Library,LA County Library,33.91721,-118.35450,12700 Grevillea Ave.,Hawthorne,90250,Los Angeles,(310) 679-8193
Hermosa Beach Library,LA County Library,33.86427,-118.39559,550 Pier Ave.,Hermosa Beach,90254,Los Angeles,(310) 379-8475
Hollydale Library,LA County Library,33.91773,-118.16872,12000 South Garfield Ave.,South Gate,90280,Los Angeles,(562) 634-0156
Huntington Park Library,LA County Library,33.98038,-118.21876,6518 Miles Ave.,Huntington Park,90255,Los Angeles,(323) 583-1461
La Canada Flintridge Library,LA County Library,34.20283,-118.19404,4545 North Oakwood Ave.,La Canada Flintridge,91011,Los Angeles,(818) 790-3330
La Crescenta Library,LA County Library,34.22468,-118.24037,2809 Foothill Blvd,La Crescenta,91214,Los Angeles,(818) 248-5313
La Mirada Library,LA County Library,33.90580,-118.01096,13800 La Mirada Blvd.,La Mirada,90638,Los Angeles,(562) 943-0277
La Puente Library,LA County Library,34.01936,-117.95112,15920 East Central Ave.,La Puente,91744,Los Angeles,(626) 968-4613
La Verne Library,LA County Library,34.11138,-117.76418,3640 D. St.,La Verne,91750,Los Angeles,(909) 596-1934
Lake Los Angeles Library,LA County Library,34.61702,-117.82772,"16921 East Ave. O, #A",Palmdale,93591,Los Angeles,(661) 264-0593
Lancaster Library,LA County Library,34.69848,-118.14025,601 W. Lancaster Blvd,Lancaster,93534,Los Angeles,(661) 948-5029
Lawndale Library,LA County Library,33.89852,-118.35446,14615 Burin Ave.,Lawndale,90260,Los Angeles,(310) 676-0177
Leland R. Weaver Library,LA County Library,33.94409,-118.20158,4035 Tweedy Blvd.,South Gate,90280,Los Angeles,(323) 567-8853
Lennox Library,LA County Library,33.93846,-118.35227,4359 Lennox Blvd,Lennox,90304,Los Angeles,(310) 674-0385
Littlerock Library,LA County Library,34.51992,-117.98874,35119 80Th Street East,Littlerock,93543,Los Angeles,(661) 944-4138
Live Oak Library,LA County Library,34.11013,-118.01310,4153 East Live Oak Ave.,Arcadia,91006,Los Angeles,(626) 446-8803
Lloyd Taber-Marina Del Rey Library,LA County Library,33.98289,-118.44311,4533 Admiralty Way,Marina Del Rey,90292,Los Angeles,(310) 821-3415
Lomita Library,LA County Library,33.80527,-118.31912,24200 Narbonne Ave.,Lomita,90717,Los Angeles,(310) 539-4515
Los Nietos Library,LA County Library,33.96473,-118.07317,8511 Duchess Dr.,Whittier,90606,Los Angeles,(562) 695-0708
Lynwood Library,LA County Library,33.92720,-118.19907,11320 Bullis Rd.,Lynwood,90262,Los Angeles,(310) 635-7121
Malibu Library,LA County Library,34.03697,-118.68863,23519 West Civic Center Way,Malibu,90265,Los Angeles,(310) 456-6438
Manhattan Beach Library,LA County Library,33.88690,-118.41038,1320 Highland Ave.,Manhattan Beach,90266,Los Angeles,(310) 545-8595
Masao W. Satow Library,LA County Library,33.90001,-118.32697,14433 South Crenshaw Blvd.,Gardena,90249,Los Angeles,(310) 679-0638
Maywood Cesar Chavez Library,LA County Library,33.98776,-118.18899,4323 East Slauson Ave.,Maywood,90270,Los Angeles,(323) 771-8600
Montebello Library,LA County Library,34.02076,-118.11547,1550 West Beverly Blvd.,Montebello,90640,Los Angeles,(323) 722-6551
Norwalk Library,LA County Library,33.91668,-118.06938,12350 Imperial Hwy.,Norwalk,90650,Los Angeles,(562) 868-0775
Norwood Library,LA County Library,34.08698,-118.01614,4550 North Peck Rd.,El Monte,91732,Los Angeles,(626) 443-3147
Paramount Library,LA County Library,33.88567,-118.16100,16254 Colorado Ave.,Paramount,90723,Los Angeles,(562) 630-3171
Pico Rivera Library,LA County Library,33.99202,-118.08927,9001 Mines Ave.,Pico Rivera,90660,Los Angeles,(562) 942-7394
Quartz Hill Library,LA County Library,34.64621,-118.21817,42018 N. 50Th St. W.,Quartz Hill,93536,Los Angeles,(661) 943-2454
Rivera Library,LA County Library,33.96897,-118.10107,7828 S. Serapis Ave.,Pico Rivera,90660,Los Angeles,(562) 949-5485
Rosemead Library,LA County Library,34.08023,-118.07724,8800 Valley Blvd.,Rosemead,91770,Los Angeles,(626) 573-5220
Rowland Heights Library,LA County Library,33.98446,-117.88856,1850 Nogales St.,Rowland Heights,91748,Los Angeles,(626) 912-5348
San Dimas Library,LA County Library,34.10809,-117.80321,145 North Walnut Ave.,San Dimas,91773,Los Angeles,(909) 599-6738
San Fernando Library,LA County Library,34.28562,-118.43860,217 N. Maclay Ave.,San Fernando,91340,Los Angeles,(818) 365-6928
San Gabriel Library,LA County Library,34.09578,-118.09933,500 South Del Mar Ave.,San Gabriel,91776,Los Angeles,(626) 287-0761
Sorensen Library,LA County Library,33.97950,-118.06238,6934 Broadway Ave.,Whittier,90606,Los Angeles,(562) 695-3979
South El Monte Library,LA County Library,34.04480,-118.04665,1430 N. Central Ave.,South El Monte,91733,Los Angeles,(626) 443-4158
South Whittier Library,LA County Library,33.92549,-118.02456,11543 Colima Rd,Whittier,90604,Los Angeles,(562) 946-4415
Stevenson Ranch Express Library,LA County Library,34.39322,-118.57280,25950 The Old Road,Stevenson Ranch,91381,Los Angeles,(661) 287-5954
Sunkist Library,LA County Library,34.05524,-117.97675,840 North Puente Ave.,La Puente,91746,Los Angeles,(626) 960-2707
Temple City Library,LA County Library,34.10839,-118.05717,5939 Golden West Ave.,Temple City,91780,Los Angeles,(626) 285-2136
Topanga,LA County Library,34.08991,-118.60341,122 N. Topanga Canyon Blvd.,Topanga,90290,Los Angeles,(310) 455-3480
View Park Bebe Moore Campbell Library,LA County Library,33.99281,-118.34122,3854 West 54Th St.,Los Angeles,90043,Los Angeles,(323) 293-5371
Walnut Library,LA County Library,34.02596,-117.84369,21155 La Puente Rd.,Walnut,91789,Los Angeles,(909) 595-0757
West Covina Library,LA County Library,34.07106,-117.94037,1601 West Covina Pkwy.,West Covina,91790,Los Angeles,(626) 962-3541
West Hollywood Library,LA County Library,34.08168,-118.38427,625 North San Vicente Blvd.,West Hollywood,90069,Los Angeles,(310) 652-5340
Westlake Village Library,LA County Library,34.14455,-118.79901,31220 W. Oak Crest Drive,Westlake Village,91361,Los Angeles,(818) 865-9230
Willowbrook Library,LA County Library,33.92664,-118.23935,11737 Wilmington Ave.,Los Angeles,90059,Los Angeles,(323) 564-5698
Wiseburn Library,LA County Library,33.90979,-118.37345,5335 West 135Th St.,Hawthorne,90250,Los Angeles,(310) 643-8880
Woodcrest Library,LA County Library,33.93982,-118.29994,1340 West 106Th St.,Los Angeles,90044,Los Angeles,(323) 757-9373
Lake County Library,Lake County Library,39.05148,-122.91744,1425 N. High,Lakeport,95453,Lake,(707) 263-8817
Middletown Library,Lake County Library,38.74998,-122.61520,21256 Washington Street,Middletown,95461,Lake,(707) 987-3674
Redbud Library,Lake County Library,38.96501,-122.63419,14785 Burns Valley Rd.,Clearlake,95422,Lake,(707) 994-5115
Upper Lake Library,Lake County Library,39.16606,-122.91015,310 Second St.,Upper Lake,95485,Lake,(707) 275-2049
Larkspur Public Library,Larkspur Public Library,37.93430,-122.53531,400 Magnolia Ave,Larkspur,94939,Marin,(415) 927-5005
Lassen Library District,Lassen Library District,40.41487,-120.64943,1618 Main St.,Susanville,96130,Lassen,(530) 251-8127
Twelve Bridges,Lincoln Public Library,38.84979,-121.29229,485 Twelve Bridges Drive,Lincoln,95648,Placer,(916) 434-2410
Civic Center Library,Livermore Public Library,37.67424,-121.75429,1188 S. Livermore Ave.,Livermore,94550,Alameda,(925) 373-5500
Rincon Branch Library,Livermore Public Library,37.68651,-121.78488,725 Rincon Ave.,Livermore,94551,Alameda,(925) 373-5540
Springtown Branch Library,Livermore Public Library,37.70690,-121.73738,998 Bluebell Dr.,Livermore,94551,Alameda,(925) 373-5517
Lodi Public Library,Lodi Public Library,38.13709,-121.27542,201 W. Locust Street,Lodi,95240,San Joaquin,(209) 333-5566
Lompoc Public Library,Lompoc Public Library,34.65372,-120.45201,501 E. North Ave.,Lompoc,93436,Santa Barbara,(805) 875-8775
Village Branch Library,Lompoc Public Library,34.70036,-120.46670,3755 Constellation Road,Lompoc,93436,Santa Barbara,(805) 733-3323
Alamitos Branch Library,Long Beach Public Library,33.76886,-118.16856,1836 E. Third St.,Long Beach,90802,Los Angeles,(562) 570-1037
Bach Branch Library,Long Beach Public Library,33.83187,-118.12557,4055 Bellflower Blvd.,Long Beach,90808,Los Angeles,(562) 570-1038
Bay Shore Branch Library,Long Beach Public Library,33.75804,-118.13051,195 Bay Shore Ave.,Long Beach,90803,Los Angeles,(562) 570-1039
Bret Harte Branch Library,Long Beach Public Library,33.80459,-118.21407,1595 W. Willow St.,Long Beach,90810,Los Angeles,(562) 570-1044
Brewitt Branch Library,Long Beach Public Library,33.78238,-118.14514,4036 E. Anaheim St.,Long Beach,90804,Los Angeles,(562) 570-1040
Burnett Branch Library,Long Beach Public Library,33.79685,-118.18573,560 E. Hill St.,Long Beach,90806,Los Angeles,(562) 570-1041
Dana Branch Library,Long Beach Public Library,33.82406,-118.18472,3680 Atlantic Ave.,Long Beach,90807,Los Angeles,(562) 570-1042
El Dorado Branch Library,Long Beach Public Library,33.80890,-118.09860,2900 Studebaker Rd.,Long Beach,90815,Los Angeles,(562) 570-3136
Billie Jean King Main Library,Long Beach Public Library,33.76923,-118.19438,200 W. Broadway,Long Beach,90802,Los Angeles,(562) 570-7500
Los Altos Branch Library,Long Beach Public Library,33.79337,-118.12254,5614 Britton Dr.,Long Beach,90815,Los Angeles,(562) 570-1045
Mark Twain Branch Library,Long Beach Public Library,33.78289,-118.17343,1401 E. Anaheim St.,Long Beach,90813,Los Angeles,(562) 570-1046
Michelle Obama Neighborhood Library,Long Beach Public Library,33.86153,-118.18458,5870 Atlantic Ave.,Long Beach,90805,Los Angeles,(562) 570-1047
Loomis Library & Community Learning Center,Loomis Library & Community Learning Center,38.82000,-121.19055,6050 Library Dr.,Loomis,95650,Placer,(916) 824-2905
Angeles Mesa Branch,Los Angeles Public Library,33.99483,-118.32286,2700 W. 52Nd St.,Los Angeles,90043,Los Angeles,(323) 292-4328
Arroyo Seco Regional Branch,Los Angeles Public Library,34.11383,-118.18633,6145 N. Figueroa St.,Los Angeles,90042,Los Angeles,(323) 255-0537
Ascot Branch,Los Angeles Public Library,33.97436,-118.27463,120 W. Florence Ave.,Los Angeles,90003,Los Angeles,(323) 759-4817
Atwater Village Branch,Los Angeles Public Library,34.12013,-118.25919,3379 Glendale Blvd.,Los Angeles,90039,Los Angeles,(323) 664-1353
Baldwin Hills Branch,Los Angeles Public Library,34.02821,-118.35265,2906 S. La Brea,Los Angeles,90016,Los Angeles,(323) 733-1196
Benjamin Franklin Branch,Los Angeles Public Library,34.04404,-118.21223,2200 E. First St.,Los Angeles,90033,Los Angeles,(323) 263-6901
Donald Bruce Kaufman Brentwood Branch,Los Angeles Public Library,34.05267,-118.46874,11820 San Vicente Blvd.,Los Angeles,90049,Los Angeles,(310) 575-8273
Cahuenga Branch,Los Angeles Public Library,34.09104,-118.28895,4591 Santa Monica Blvd.,Los Angeles,90029,Los Angeles,(323) 664-6418
Canoga Park Branch,Los Angeles Public Library,34.20136,-118.59015,20939 Sherman Way,Canoga Park,91303,Los Angeles,(818) 887-0320
Chatsworth,Los Angeles Public Library,34.25700,-118.59246,21052 Devonshire St,Chatsworth,91311,Los Angeles,(818) 341-4276
Chinatown Branch,Los Angeles Public Library,34.06066,-118.24107,639 N. Hill St.,Los Angeles,90012,Los Angeles,(213) 620-0925
Cypress Park Branch,Los Angeles Public Library,34.09446,-118.22745,1150 Cypress Ave.,Los Angeles,90065,Los Angeles,(323) 224-0039
Will and Ariel Durant Branch,Los Angeles Public Library,34.09773,-118.34566,7140 W. Sunset Blvd.,Los Angeles,90046,Los Angeles,(323) 876-2741
Eagle Rock Branch,Los Angeles Public Library,34.13758,-118.21361,5027 Caspar Ave.,Los Angeles,90041,Los Angeles,(323) 250-7808
Echo Park Library,Los Angeles Public Library,34.06722,-118.25724,1410 W. Temple St.,Los Angeles,90026,Los Angeles,(213) 250-7808
Edendale Branch,Los Angeles Public Library,34.07817,-118.26232,2011 W. Sunset Blvd.,Los Angeles,90026,Los Angeles,(213) 207-3000
El Sereno Branch,Los Angeles Public Library,34.08922,-118.16851,5226 Huntington Dr. South,Los Angeles,90032,Los Angeles,(323) 225-9201
Encino-Tarzana Library,Los Angeles Public Library,34.16677,-118.53005,18231 Ventura Blvd.,Tarzana,91356,Los Angeles,(818) 343-1983
Exposition Park Regional Branch,Los Angeles Public Library,34.01440,-118.30862,3900 S. Western Ave.,Los Angeles,90062,Los Angeles,(323) 290-3113
Fairfax Branch,Los Angeles Public Library,34.07177,-118.35359,161 S. Gardner St.,Los Angeles,90036,Los Angeles,(323) 936-6191
Felipe De Neve Branch,Los Angeles Public Library,34.06331,-118.28397,2820 W. Sixth St.,Los Angeles,90057,Los Angeles,(213) 384-7676
Granada Hills Branch,Los Angeles Public Library,34.26428,-118.49762,10640 Petit Ave.,Granada Hills,91344,Los Angeles,(818) 368-5687
Harbor City-Harbor Gateway,Los Angeles Public Library,33.80695,-118.30731,24000 S. Western Ave.,Harbor City,90710,Los Angeles,(310) 534-9520
Goldwyn Hollywood Regional Branch,Los Angeles Public Library,34.10052,-118.32871,1623 Ivar Ave.,Los Angeles,90028,Los Angeles,(323) 856-8260
Hyde Park Branch,Los Angeles Public Library,33.97478,-118.31820,2205 Florence Av,Los Angeles,90043,Los Angeles,(323) 750-7241
Jefferson Branch,Los Angeles Public Library,34.02593,-118.31921,2211 W. Jefferson Blvd.,Los Angeles,90018,Los Angeles,(323) 734-8573
John C. Fremont Branch,Los Angeles Public Library,34.08371,-118.33382,6121 Melrose Ave.,Los Angeles,90038,Los Angeles,(323) 962-3521
John Muir Branch,Los Angeles Public Library,33.98152,-118.29208,1005 W. 64Th St.,Los Angeles,90044,Los Angeles,(323) 789-4800
Junipero Serra Branch,Los Angeles Public Library,34.00173,-118.27437,4607 S. Main St.,Los Angeles,90037,Los Angeles,(323) 234-1685
Lake View Terrace,Los Angeles Public Library,34.27277,-118.39391,12002 Osborne St.,Lake View Terrace,91342,Los Angeles,(818) 890-7404
Lincoln Heights Branch,Los Angeles Public Library,34.07616,-118.21401,2530 Workman St.,Los Angeles,90031,Los Angeles,(323) 226-1692
Little Tokyo Branch Library,Los Angeles Public Library,34.05007,-118.24380,203 S. Los Angeles Street,Los Angeles,90012,Los Angeles,(213) 612-0525
Los Feliz Branch,Los Angeles Public Library,34.10507,-118.28715,1874 Hillhurst Ave.,Los Angeles,90027,Los Angeles,(323) 913-4710
Malabar Branch,Los Angeles Public Library,34.05074,-118.19777,2801 Wabash Ave.,Los Angeles,90033,Los Angeles,(323) 263-1497
Mark Twain Branch,Los Angeles Public Library,33.94844,-118.28298,9621 S. Figueroa St.,Los Angeles,90039,Los Angeles,(323) 755-4088
Mar Vista Branch,Los Angeles Public Library,34.00570,-118.42904,12006 Venice Blvd.,Los Angeles,90066,Los Angeles,(310) 390-3454
Memorial Branch,Los Angeles Public Library,34.05735,-118.33157,4625 W. Olympic Blvd.,Los Angeles,90019,Los Angeles,(323) 938-2732
Mid-Valley Regional Branch,Los Angeles Public Library,34.23512,-118.48740,16244 Nordhoff St.,North Hills,91343,Los Angeles,(818) 895-3650
North Hollywood Regional Branch,Los Angeles Public Library,34.16564,-118.37948,5211 Tujunga Ave.,North Hollywood,91601,Los Angeles,(818) 766-7185
Northridge Branch,Los Angeles Public Library,34.23509,-118.53410,9051 Darby Ave.,Northridge,91325,Los Angeles,(818) 886-3640
Pacoima Branch,Los Angeles Public Library,34.26129,-118.42932,13605 Van Nuys Blvd.,Pacoima,91331,Los Angeles,(818) 899-5203
Palisades Branch,Los Angeles Public Library,34.04400,-118.52513,861 Alma Real Dr.,Pacific Palisades,90272,Los Angeles,(310) 459-2754
Palms-Rancho Park Branch,Los Angeles Public Library,34.03364,-118.41824,2920 Overland Ave.,Los Angeles,90064,Los Angeles,(310) 840-2142
Panorama City Branch,Los Angeles Public Library,34.22193,-118.44641,14345 Roscoe Blvd.,Panorama City,91402,Los Angeles,(818) 894-4071
Pico Union Branch,Los Angeles Public Library,34.05094,-118.28009,1030 S. Alvarado St.,Los Angeles,90006,Los Angeles,(213) 368-7647
Pio Pico Koreatown Branch,Los Angeles Public Library,34.06004,-118.30711,694 S. Oxford,Los Angeles,90005,Los Angeles,(213) 368-7647
Platt Branch,Los Angeles Public Library,34.18623,-118.64136,23600 Victory Blvd.,Los Angeles,91367,Los Angeles,(818) 340-9386
Playa Vista Branch,Los Angeles Public Library,33.97021,-118.42560,6400 Playa Vista Drive,Playa Vista,90094,Los Angeles,(310) 437-6680
Porter Ranch Branch,Los Angeles Public Library,34.27763,-118.56005,11371 Tampa Ave.,Los Angeles,91326,Los Angeles,(818) 360-5706
Robert Louis Stevenson Branch,Los Angeles Public Library,34.02766,-118.19827,803 Spence St.,Los Angeles,90023,Los Angeles,(323) 268-4710
Robertson Branch,Los Angeles Public Library,34.04837,-118.38583,1719 S. Robertson Blvd.,Los Angeles,90035,Los Angeles,(310) 840-2147
San Pedro Regional Branch,Los Angeles Public Library,33.73574,-118.29295,931 S. Gaffey St.,San Pedro,90731,Los Angeles,(310) 548-7779
Sherman Oaks Branch,Los Angeles Public Library,34.15123,-118.44383,14245 Moorpark St.,Sherman Oaks,91423,Los Angeles,(818) 205-9716
Silver Lake Branch,Los Angeles Public Library,34.10034,-118.25965,2411 Glendale Blvd.,Los Angeles,90039,Los Angeles,(323) 913-7451
Studio City Branch,Los Angeles Public Library,34.15070,-118.40558,12511 Moorpark St.,Studio City,91604,Los Angeles,(818) 755-7873
Sunland-Tujunga Branch,Los Angeles Public Library,34.25825,-118.30131,7771 Foothill Blvd.,Tujunga,91042,Los Angeles,(818) 352-4481
Sun Valley Branch,Los Angeles Public Library,34.21488,-118.37095,7935 Vineland Ave.,Sun Valley,91352,Los Angeles,(818) 764-1138
Sylmar,Los Angeles Public Library,34.30879,-118.44785,14430 Polk St.,Sylmar,91342,Los Angeles,(818) 367-6102
Valley Plaza Branch,Los Angeles Public Library,34.19463,-118.40111,12311 Vanowen St.,North Hollywood,91605,Los Angeles,(818) 765-9251
Van Nuys Branch,Los Angeles Public Library,34.18395,-118.44628,6250 Sylmar Ave. Mall,Van Nuys,91401,Los Angeles,(818) 756-8453
Venice Branch,Los Angeles Public Library,33.98754,-118.46536,501 S. Venice Blvd.,Venice,90291,Los Angeles,(310) 821-1769
Vermont Square Branch,Los Angeles Public Library,33.99985,-118.29590,1201 W. 48Th St.,Los Angeles,90037,Los Angeles,(323) 290-7405
Vernon-Leon H. Washington Jr. Memorial Branch,Los Angeles Public Library,34.00262,-118.25612,4504 S. Central Ave.,Los Angeles,90011,Los Angeles,(323) 234-9106
Washington Irving Branch,Los Angeles Public Library,34.04016,-118.32916,4117 W. Washington Blvd.,Los Angeles,90018,Los Angeles,(323) 734-6303
Alma Reaves Woods Watts Branch,Los Angeles Public Library,33.94403,-118.24663,10205 Compton Ave.,Los Angeles,90002,Los Angeles,(323) 789-2850
Westchester -Loyola Village Branch,Los Angeles Public Library,33.95954,-118.41717,7114 W. Manchester Av.,Los Angeles,90045,Los Angeles,(310) 348-1096
West Los Angeles Regional Branch,Los Angeles Public Library,34.04572,-118.45019,11360 Santa Monica Blvd.,Los Angeles,90025,Los Angeles,(310) 575-8323
West Valley Regional Branch,Los Angeles Public Library,34.19335,-118.54808,19036 Vanowen St.,Reseda,91335,Los Angeles,(818) 345-9806
Westwood Branch,Los Angeles Public Library,34.05792,-118.44182,1246 Glendon Ave,Westwood,90024,Los Angeles,(310) 474-1739
Wilmington Branch,Los Angeles Public Library,33.78915,-118.26280,1300 North Avalon Blvd.,Wilmington,90744,Los Angeles,(310) 834-1082
Wilshire Branch,Los Angeles Public Library,34.07446,-118.31177,149 N. St. Andrews Pl.,Los Angeles,90004,Los Angeles,(323) 957-4550
Woodland Hills Branch,Los Angeles Public Library,34.16788,-118.61069,22200 Ventura Blvd.,Woodland Hills,91364,Los Angeles,(818) 226-0017
Central Library,Los Angeles Public Library,34.05050,-118.25565,630 West Fifth St.,Los Angeles,90071,Los Angeles,(213) 228-7571
Los Gatos Public Library,Los Gatos Library,37.22017,-121.97828,100 Villa Avenue,Los Gatos,95030,Santa Clara,(408) 354-6891
Chowchilla Branch Library,Madera County Library,37.12289,-120.26186,300 Kings Ave.,Chowchilla,93610,Madera,(559) 665-2630
Madera Library,Madera County Library,36.96136,-120.06196,121 N. G St.,Madera,93637,Madera,(559) 675-7871
North Fork Branch Library,Madera County Library,37.22579,-119.51017,32908 Rd. 222,North Fork,93643,Madera,(559) 877-2387
Oakhurst Branch Library,Madera County Library,37.33085,-119.65331,49044 Civic Circle,Oakhurst,93644,Madera,(559) 683-4838
Madera Ranchos Branch Library,Madera County Library,36.92471,-119.86895,37398 Berkshire Drive,Madera,93636,Madera,(559) 645-1214
Bolinas Library,Marin County Free Library,37.90951,-122.68579,16 Wharf Rd.,Bolinas,94924,Marin,(415) 868-1171
Civic Center Library,Marin County Free Library,37.99793,-122.53066,"3501 Civic Center Dr, #427",San Rafael,94903,Marin,(415) 473-6057
Corte Madera Library,Marin County Free Library,37.92414,-122.51811,707 Meadowsweet Drive,Corte Madera,94925,Marin,(415) 924-3515
Fairfax Library,Marin County Free Library,37.99016,-122.59272,2097 Sir Francis Drake Blvd,Fairfax,94930,Marin,(415) 453-8151
Inverness Library,Marin County Free Library,38.09727,-122.85331,15 Park Ave.,Inverness,94937,Marin,(415) 669-1288
Marin City Library,Marin County Free Library,37.87322,-122.51157,164 Donahue St.,Marin City,94965,Marin,(415) 332-6158
Novato Library,Marin County Free Library,38.10720,-122.58009,1720 Novato Blvd.,Novato,94947,Marin,(415) 473-2050
Point Reyes Station Library,Marin County Free Library,38.06961,-122.80656,11431 State Route 1,Point Reyes Station,94956,Marin,(415) 663-8375
South Novato Library,Marin County Free Library,38.05734,-122.52552,931 C St.,Novato,94949,Marin,(415) 506-3165
Stinson Beach Library,Marin County Free Library,37.89839,-122.64040,3521 Shoreline Hwy,Stinson Beach,94970,Marin,(415) 868-0252
Bassett Memorial Library In Wawona,Mariposa County Library,37.54720,-119.64614,7971 Chilnualna Falls Road,Wawona,95389,Mariposa,(209) 375-6510
El Portal Library,Mariposa County Library,37.67326,-119.80663,9670 Rancheria Flat Road,El Portal,95318,Mariposa,(209) 379-2401
Mariposa Library,Mariposa County Library,37.48949,-119.96748,4978 10Th Street,Mariposa,95338,Mariposa,(209) 966-2140
Red Cloud Library,Mariposa County Library,37.74616,-120.13121,10332 C Fiske Rd.,Coulterville,95311,Mariposa,(209) 878-3692
Yosemite Library,Mariposa County Library,37.86510,-119.53833,Girls Club,Yosemite National Pa,95389,Mariposa,(209) 372-4552
Ukiah Branch Library,Mendocino County Library,39.15020,-123.20660,105 N. Main St.,Ukiah,95482,Mendocino,(707) 463-4490
Fort Bragg Branch Library,Mendocino County Library,39.44570,-123.80113,499 Laurel St.,Ft Bragg,95437,Mendocino,(707) 964-2020
Willits Branch Library,Mendocino County Library,39.41291,-123.34660,390 E. Commercial St.,Willits,95490,Mendocino,(707) 459-5908
Coast Community Library,Mendocino County Library,38.90942,-123.69198,225 Main St.,Point Arena,95468,Mendocino,(707) 882-3114
Round Valley Public Library,Mendocino County Library,39.79399,-123.24980,23925 Howard Street,Covelo,95428,Mendocino,(707) 983-6736
Belle Haven Branch,Menlo Park Public Library,37.47625,-122.16116,413 Ivy Dr.,Menlo Park,94025,San Mateo,(650) 330-2540
Menlo Park Public Library,Menlo Park Public Library,37.45396,-122.17982,800 Alma St.,Menlo Park,94025,San Mateo,(650) 330-2500
Atwater Branch Library,Merced County Library,37.35083,-120.60617,1600 Third St.,Atwater,95301,Merced,(209) 358-6651
Delhi Educational Park Community Library,Merced County Library,37.42792,-120.77914,16114 Schendal Road,Delhi,95315,Merced,(209) 669-3169
Dos Palos Branch Library,Merced County Library,36.98489,-120.62783,2002 Almond,Dos Palos,93620,Merced,(209) 392-2155
Gustine Branch Library,Merced County Library,37.25787,-121.00208,205 Sixth St.,Gustine,95322,Merced,(209) 854-3013
Irwin-Hilmar Branch Library,Merced County Library,37.40318,-120.85114,20041 W. Falke St.,Hilmar,95324,Merced,(209) 632-0746
Le Grand Branch Library,Merced County Library,37.22842,-120.25400,12949 Le Grand Road,Le Grand,95333,Merced,(209) 389-4541
Livingston Branch Library,Merced County Library,37.37946,-120.72372,1212 Main St.,Livingston,95334,Merced,(209) 394-7330
Los Banos Branch Library,Merced County Library,37.05630,-120.84725,1312 Seventh St.,Los Banos,93635,Merced,(209) 826-5254
Merced County Library,Merced County Library,37.30688,-120.48499,2100 O St.,Merced,95340,Merced,(209) 385-7484
Santa Nella Branch Library,Merced County Library,37.09385,-121.01932,29188 W. Centinella Ave.,Gustine,95322,Merced,(209) 826-6059
Snelling Branch Library,Merced County Library,37.51951,-120.43760,15916 N. Hwy. 59,Snelling,95369,Merced,(209) 563-6616
Winton Branch Library,Merced County Library,37.38926,-120.61455,7057 W. Walnut,Winton,95388,Merced,(209) 358-3651
Mill Valley Public Library,Mill Valley Public Library,37.90597,-122.55413,375 Throckmorton Ave.,Mill Valley,94941,Marin,(415) 389-4292
Mission Viejo Library,Mission Viejo Library,33.59629,-117.65901,100 Civic Center,Mission Viejo,92691,Orange,(949) 830-7100
Adin Station Library,Modoc County Library,41.19248,-120.94409,609 South Main,Adin,96006,Modoc,(530) 299-3502
Cedarville Library,Modoc County Library,41.52906,-120.17328,460 Main St.,Cedarville,96104,Modoc,(530) 279-2614
Lookout Library,Modoc County Library,41.20819,-121.15018,166 Main Street,Lookout,96054,Modoc,(530) 294-5776
Modoc County Library,Modoc County Library,41.48636,-120.54429,212 W. Third St.,Alturas,96101,Modoc,(530) 233-6326
Benton Library,Mono County Free Library,37.81683,-118.47709,25553 Highway 6,Benton,93512,Mono,(760) 933-2542
Bridgeport Library,Mono County Free Library,38.25720,-119.22904,94 N. School St.,Bridgeport,93517,Mono,(760) 932-7482
Coleville Library,Mono County Free Library,38.56846,-119.50946,111591 Us Highway 395,Coleville,96107,Mono,(530) 495-2788
Crowley Community Library,Mono County Free Library,37.56907,-118.75216,3627 Crowley Lake Drive,Crowley Lake,93546,Mono,(760) 935-4505
June Lake Library,Mono County Free Library,37.77773,-119.07747,90 W. Granite Ave.,June Lake,93529,Mono,(760) 648-7284
Lee Vining Library,Mono County Free Library,37.95759,-119.11994,51710 Hwy. 395,Lee Vining,93541,Mono,(760) 647-6123
Mammoth Lakes Library,Mono County Free Library,37.63976,-118.96328,400 Sierra Park Road,Mammoth Lakes,93546,Mono,(760) 934-4777
Monrovia Public Library,Monrovia Public Library,34.14860,-118.00223,321 S. Myrtle Ave.,Monrovia,91016,Los Angeles,(626) 256-8274
Aromas Branch Library,Monterey County Free Libraries,36.88871,-121.64374,389-D Blohm Avenue,Aromas,95004,Monterey,(831) 796-6128
Big Sur Branch Library,Monterey County Free Libraries,36.26472,-121.80111,Hwy. 1 At Ripplewood Resort,Big Sur,93920,Monterey,(831) 647-7660
Buena Vista Branch Library,Monterey County Free Libraries,36.60573,-121.64781,18250 Tara Dr.,Salinas,93908,Monterey,(831) 796-6060
Carmel Valley Branch Library,Monterey County Free Libraries,36.48060,-121.73482,65 W. Carmel Valley Rd.,Carmel Valley,93924,Monterey,(831) 647-7760
Castroville Branch Library,Monterey County Free Libraries,36.76768,-121.75757,11160 Speegle St,Castroville,95012,Monterey,(831) 769-8724
Gonzales Branch Library,Monterey County Free Libraries,36.51524,-121.43593,851 5Th St. Suite V,Gonzales,93926,Monterey,(831) 386-6872
Greenfield Branch Library,Monterey County Free Libraries,36.32232,-121.24578,315 El Camino Real,Greenfield,93927,Monterey,(831) 755-5878
Marina Branch Library,Monterey County Free Libraries,36.69142,-121.79965,190 Seaside Cr,Marina,93933,Monterey,(831) 883-7507
King City Branch Library,Monterey County Free Libraries,36.21234,-121.12799,402 Broadway,King City,93930,Monterey,(831) 386-6885
Pajaro Branch Library,Monterey County Free Libraries,36.90153,-121.74953,29 Bishop St.,Pajaro,95076,Monterey,(831) 796-6163
Parkfield Branch Library,Monterey County Free Libraries,35.89563,-120.43410,70643 Parkfield-Coalinga Rd.,San Miguel,93451,Monterey,(831) 385-7456
Prunedale Branch Library,Monterey County Free Libraries,36.80314,-121.66245,17822 Moro Rd.,Salinas,93907,Monterey,(831) 796-3080
San Ardo Branch Library,Monterey County Free Libraries,36.01870,-120.90760,62350 College,San Ardo,93450,Monterey,(831) 386-6858
San Lucas Branch Library,Monterey County Free Libraries,36.12913,-121.01897,54692 Teresa St.,San Lucas,93954,Monterey,(831) 386-6833
Seaside Branch Library,Monterey County Free Libraries,36.60318,-121.85255,550 Harcourt Ave.,Seaside,93955,Monterey,(831) 899-8222
Soledad Branch Library,Monterey County Free Libraries,36.43575,-121.32603,401 Gabilan Dr.,Soldedad,93960,Monterey,(831) 386-6890
Monterey Park Bruggemeyer Library,Monterey Park Bruggemeyer Library,34.05900,-118.12484,318 S. Ramona Avenue,Monterey Park,91754,Los Angeles,(626) 307-1418
Monterey Public Library,Monterey Public Library,36.59639,-121.89689,625 Pacific St.,Monterey,93940,Monterey,(831) 646-3933
Moorpark City Library,Moorpark City Library,34.28631,-118.88257,699 Moorpark Avenue,Moorpark,93021,Ventura,(805) 517-6370
Moreno Valley Public Library,Moreno Valley Public Library,33.91772,-117.21833,25480 Alessandro Blvd,Moreno Valley,92553,Riverside,(951) 413-3880
Moreno Valley Mall Branch,Moreno Valley Public Library,33.93886,-117.27018,"22500 Town Circle, Ste 2078",Moreno Valley,92553,Riverside,(951) 413-3880
Moreno Valley Iris Plaza Branch,Moreno Valley Public Library,33.88570,-117.22550,16170 Perris Blvd. Suite C3,Moreno Valley,92551,Riverside,(951) 413-3760
Mountain View Public Library,Mountain View Public Library,37.39033,-122.08363,585 Franklin St.,Mountain View,94041,Santa Clara,(650) 903-6335
Murrieta Public Library,Murrieta Public Library,33.55772,-117.21088,8 Town Square,Murrieta,92562,Riverside,(951) 304-2665
American Canyon,Napa County Library,38.17558,-122.25423,"3421 Broadway/Hwy 29, Ste. E-3",American Canyon,94503,Napa,(707) 644-1136
Calistoga Public Library,Napa County Library,38.57612,-122.57994,1108 Myrtle St.,Calistoga,94515,Napa,(707) 942-4833
Napa Main Library,Napa County Library,38.29554,-122.28373,580 Coombs St.,Napa,94559,Napa,(707) 253-4241
Yountville Library,Napa County Library,38.40202,-122.36040,6516 Washington Street,Yountville,94599,Napa,(707) 944-1888
National City Public Library,National City Public Library,32.67060,-117.10414,1401 National City Blvd.,National City,91950,San Diego,(619) 470-5800
Bear River Station,Nevada County Library,39.04688,-121.07480,11130 Magnolia Road,Grass Valley,95949,Nevada,(530) 271-4147
Doris Foley Library For Historical Research,Nevada County Library,39.26375,-121.01897,211 N. Pine St.,Nevada City,95959,Nevada,(530) 265-4606
Grass Valley Library-Royce Branch,Nevada County Library,39.21690,-121.06329,207 Mill Street,Grass Valley,95945,Nevada,(530) 273-4117
Madelyn Helling County Library,Nevada County Library,39.26983,-121.02410,980 Helling Way,Nevada City,95959,Nevada,(530) 265-7050
Penn Valley Station,Nevada County Library,39.22357,-121.20489,11336 Pleasant Valley Road,Penn Valley,95946,Nevada,(530) 432-5764
Truckee Library,Nevada County Library,39.32564,-120.19985,10031 Levon Avenue,Truckee,96161,Nevada,(530) 582-7846
Balboa Library,Newport Beach Public Library,33.60417,-117.90609,100 E. Balboa Blvd.,Newport Beach,92661,Orange,(949) 644-3076
Central Library,Newport Beach Public Library,33.60761,-117.87299,1000 Avocado Ave.,Newport Beach,92660,Orange,(949) 717-3800
Corona Del Mar Library,Newport Beach Public Library,33.59601,-117.86953,410 Marigold Ave.,Corona Del Mar,92625,Orange,(949) 644-3075
Crean Mariners Branch Library,Newport Beach Public Library,33.63265,-117.90362,1300 Irvine Avenue.,Newport Beach,92660,Orange,(949) 717-3838
81St Avenue Branch Library,Oakland Public Library,37.75340,-122.18569,1021 81St Avenue,Oakland,94621,Alameda,(510) 615-5812
African American Museum & Library at Oakland,Oakland Public Library,37.80612,-122.27633,659 14Th St.,Oakland,94612,Alameda,(510) 637-0200
Asian Branch Library,Oakland Public Library,37.80045,-122.27170,"388 9Th St., Suite 190",Oakland,94607,Alameda,(510) 238-3400
Brookfield Branch Library,Oakland Public Library,37.73734,-122.18857,9255 Edes Ave.,Oakland,94603,Alameda,(510) 615-5725
Cesar E. Chavez Branch Library,Oakland Public Library,37.77585,-122.22479,3301 E. 12Th Street,Oakland,94601,Alameda,(510) 535-5620
Dimond Branch Library,Oakland Public Library,37.80146,-122.21604,3565 Fruitvale Ave.,Oakland,94602,Alameda,(510) 482-7844
Eastmont Branch Library,Oakland Public Library,37.76813,-122.17615,7200 Bancroft Ave. Suite 211,Oakland,94605,Alameda,(510) 615-5726
Elmhurst Branch Library,Oakland Public Library,37.75157,-122.17492,1427 88Th Ave.,Oakland,94621,Alameda,(510) 615-5727
Golden Gate Branch Library,Oakland Public Library,37.83919,-122.28220,5606 San Pablo Ave.,Oakland,94608,Alameda,(510) 597-5023
Lakeview Branch Library,Oakland Public Library,37.80920,-122.24895,550 El Embarcadero,Oakland,94610,Alameda,(510) 238-7344
Martin Luther King Jr. Branch Library,Oakland Public Library,37.76061,-122.19079,6833 International Blvd.,Oakland,94621,Alameda,(510) 615-5728
Melrose Branch Library,Oakland Public Library,37.77242,-122.20755,4805 Foothill Blvd.,Oakland,94601,Alameda,(510) 535-5623
Montclair Branch Library,Oakland Public Library,37.83198,-122.21411,1687 Mountain Blvd.,Oakland,94611,Alameda,(510) 482-7810
Oakland Main Library,Oakland Public Library,37.80098,-122.26361,125 14Th St.,Oakland,94612,Alameda,(510) 238-3134
Piedmont Avenue Branch Library,Oakland Public Library,37.82784,-122.24815,80 Echo Avenue,Oakland,94611,Alameda,(510) 597-5011
Rockridge Branch Library,Oakland Public Library,37.83991,-122.25108,5366 College Ave.,Oakland,94618,Alameda,(510) 597-5017
Temescal Branch Library,Oakland Public Library,37.83820,-122.26251,5205 Telegraph Ave.,Oakland,94609,Alameda,(510) 597-5049
West Oakland Branch Library,Oakland Public Library,37.81293,-122.28529,1801 Adeline St.,Oakland,94607,Alameda,(510) 238-7352
Oceanside Reads Literacy Center,Oceanside Public Library,33.19867,-117.37877,804 Pier View Way #101,Oceanside,92054,San Diego,(760) 435-5680
Mission Branch Library,Oceanside Public Library,33.22597,-117.32850,3861-B Mission Ave.,Oceanside,92054,San Diego,(760) 435-5630
Oceanside Public Library,Oceanside Public Library,33.19753,-117.38050,330 N. Coast Hwy,Oceanside,92054,San Diego,(760) 435-5600
Lewis Family Branch,Ontario City Library,34.01835,-117.56867,3850 E. Riverside Drive,Ontario,91761,San Bernardino,(909) 395-2014
Ovitt Family Community Library,Ontario City Library,34.06606,-117.64908,215 East C Street,Ontario,91764,San Bernardino,(909) 395-2004
Aliso Viejo Branch Library,Orange County Public Libraries,33.57006,-117.72680,1 Journey,Aliso Viejo,92656,Orange,(949) 360-1730
Brea Branch Library,Orange County Public Libraries,33.91707,-117.88892,1 Civic Center Circle,Brea,92821,Orange,(714) 671-1722
Costa Mesa Branch Library,Orange County Public Libraries,33.64189,-117.92220,1855 Park Ave.,Costa Mesa,92627,Orange,(949) 646-8845
Cypress Branch Library,Orange County Public Libraries,33.82483,-118.03938,5331 Orange Ave.,Cypress,90630,Orange,(714) 826-0350
Dana Point Branch Library,Orange County Public Libraries,33.47694,-117.71603,33841 Niguel Road,Dana Point,92629,Orange,(949) 496-5517
El Toro Branch Library,Orange County Public Libraries,33.61948,-117.69981,24672 Raymond Way,Lake Forest,92630,Orange,(949) 855-8173
Foothill Ranch Branch Library,Orange County Public Libraries,33.68090,-117.65914,27002 Cabriole,Foothill Ranch,92610,Orange,(949) 855-8072
Fountain Valley Branch Library,Orange County Public Libraries,33.70706,-117.95117,17635 Los Alamos St.,Fountain Valley,92708,Orange,(714) 962-1324
Chapman Branch Library,Orange County Public Libraries,33.78823,-117.97199,9182 Chapman Ave.,Garden Grove,92841,Orange,(714) 539-2115
Garden Grove Main Library,Orange County Public Libraries,33.77736,-117.93730,11200 Stanford Ave.,Garden Grove,92840,Orange,(714) 530-0711
Garden Grove Tibor Rubin Branch Library,Orange County Public Libraries,33.78883,-118.03201,11962 Bailey St.,Garden Grove,92845,Orange,(714) 897-2594
Heritage Park Branch Library,Orange County Public Libraries,33.69957,-117.77843,14361 Yale Ave.,Irvine,92604,Orange,(949) 936-4040
Katie Wheeler Branch Library,Orange County Public Libraries,33.72985,-117.78550,13019 Old Myford Rd.,Irvine,92602,Orange,(714) 669-8753
La Habra Branch Library,Orange County Public Libraries,33.93258,-117.94421,221 E. La Habra Blvd.,La Habra,90631,Orange,(562) 694-0078
La Palma Branch Library,Orange County Public Libraries,33.84863,-118.03677,7842 Walker St.,La Palma,90623,Orange,(714) 523-8585
Ladera Ranch Branch Library,Orange County Public Libraries,33.55350,-117.63703,29551 Sienna Parkway,Ladera Ranch,92694,Orange,(949) 234-5940
Laguna Beach Branch Library,Orange County Public Libraries,33.54209,-117.78248,363 Glenneyre St.,Laguna Beach,92651,Orange,(949) 497-1733
Laguna Hills Technology Library,Orange County Public Libraries,33.59187,-117.70027,25555 Alicia Pkwy,Laguna Hills,92653,Orange,(949) 707-2699
Laguna Niguel Branch Library,Orange County Public Libraries,33.52252,-117.71695,30341 Crown Valley Parkway,Laguna Niguel,92677,Orange,(949) 249-5252
Laguna Woods Library,Orange County Public Libraries,33.61047,-117.72336,24264 El Toro Road,Laguna Woods,91637,Orange,(949) 639-0500
Library Of The Canyons,Orange County Public Libraries,33.74346,-117.66764,7531 Santiago Canyon Rd.,Silverado,92676,Orange,(714) 649-2216
Los Alamitos-Rossmoor Branch Library,Orange County Public Libraries,33.78085,-118.07550,12700 Montecito Rd.,Seal Beach,90740,Orange,(562) 430-1048
Mesa Verde Branch Library,Orange County Public Libraries,33.67920,-117.92744,2969 Mesa Verde Drive East,Costa Mesa,92626,Orange,(714) 546-5274
Rancho Santa Margarita Branch Library,Orange County Public Libraries,33.64062,-117.59241,30902 La Promesa,Rancho Santa Margari,92688,Orange,(949) 459-6094
San Clemente Branch Library,Orange County Public Libraries,33.42473,-117.61713,242 Avenida Del Mar,San Clemente,92672,Orange,(949) 492-3493
San Juan Capistrano Regional Library,Orange County Public Libraries,33.50526,-117.66333,31495 El Camino Real,San Juan Capistrano,92675,Orange,(949) 493-1752
Mary Wilson Branch Library,Orange County Public Libraries,33.74365,-118.10483,707 Electric Ave.,Seal Beach,90740,Orange,(562) 431-3584
Stanton Branch Library,Orange County Public Libraries,33.80257,-117.99578,7850 Katella Ave.,Stanton,90680,Orange,(714) 898-3302
Tustin Branch Library,Orange County Public Libraries,33.74278,-117.82079,345 E. Main St.,Tustin,92780,Orange,(714) 544-7725
University Park Branch Library,Orange County Public Libraries,33.66067,-117.82075,4512 Sandburg Way,Irvine,92612,Orange,(949) 786-4001
Villa Park Branch Library,Orange County Public Libraries,33.81416,-117.81990,17865 Santiago Blvd.,Villa Park,92861,Orange,(714) 998-0861
Westminster Branch Library,Orange County Public Libraries,33.75520,-117.98649,8180 13Th St.,Westminster,92683,Orange,(714) 893-5057
El Modena Branch Library,Orange Public Library,33.78221,-117.80618,380 S. Hewes St.,Orange,92869,Orange,(714) 288-2451
Orange Public Library & History Center,Orange Public Library,33.78825,-117.84955,407 E Chapman Ave,Orange,92866,Orange,(714) 288-2471
Taft Branch Library,Orange Public Library,33.81552,-117.84575,740 E. Taft Ave.,Orange,92865,Orange,(714) 288-2430
Orland Free Library,Orland Free Library,39.74489,-122.19363,333 Mill St.,Orland,95963,Glenn,(530) 865-1640
Colonia Branch Library,Oxnard Public Library,34.20583,-119.16314,1500 Camino Del Sol #26,Oxnard,93030,Ventura,(805) 385-8108
Oxnard Public Library,Oxnard Public Library,34.20098,-119.17890,251 South A St.,Oxnard,93030,Ventura,(805) 385-7500
South Oxnard Branch Library,Oxnard Public Library,34.16066,-119.17731,4300 Saviers Road,Oxnard,93033,Ventura,(805) 385-8129
Pacific Grove Public Library,Pacific Grove Public Library,36.62233,-121.91629,550 Central Ave.,Pacific Grove,93950,Monterey,(831) 648-5765
Palm Springs Public Library,Palm Springs Public Library,33.81872,-116.52753,300 S. Sunrise Way,Palm Springs,92262,Riverside,(760) 322-7323
Welwood Murray Memorial Library,Palm Springs Public Library,33.82293,-116.54659,100 S. Palm Canyon Dr,Palm Springs,92262,Riverside,(760) 323-8296
Palmdale City Library,Palmdale City Library,34.57911,-118.11606,700 E. Palmdale Blvd.,Palmdale,93550,Los Angeles,(661) 267-5600
Palo Alto Children's Library,Palo Alto City Library,37.44479,-122.14520,1276 Harriet St.,Palo Alto,94301,Santa Clara,(650) 329-2436
College Terrace Library,Palo Alto City Library,37.42336,-122.14866,2300 Wellesley St.,Palo Alto,94306,Santa Clara,(650) 329-2436
Palo Alto Downtown Branch,Palo Alto City Library,37.44386,-122.15913,270 Forest Ave.,Palo Alto,94301,Santa Clara,(650) 329-2436
Mitchell Park Branch,Palo Alto City Library,37.41805,-122.10771,4050 Middlefield Rd.,Palo Alto,94303,Santa Clara,(650) 329-2436
Rinconada Library,Palo Alto City Library,37.44497,-122.13916,1213 Newell Rd.,Palo Alto,94303,Santa Clara,(650) 329-2436
Palo Verde Valley Library District,Palo Verde Valley Library District,33.61785,-114.59772,125 W. Chanslorway,Blythe,92225,Riverside,(760) 922-5371
Malaga Cove Library,Palos Verdes Library District,33.79863,-118.38915,2400 Via Campesina,Palos Verdes Estates,90274,Los Angeles,(310) 377-9584
Miraleste Library,Palos Verdes Library District,33.75585,-118.33005,29089 Palos Verdes Dr. E.,Rancho Palos Verdes,90275,Los Angeles,(310) 377-9584
Peninsula Center Library,Palos Verdes Library District,33.77077,-118.37076,701 Silver Spur Road,Rolling Hills Estate,90274,Los Angeles,(310) 377-9584
The Annex,Palos Verdes Library District,33.77055,-118.37099,701 Silver Spur Road,Rolling Hills Estate,90274,Los Angeles,(310) 377-9584
Allendale Branch Library,Pasadena Public Library,34.12618,-118.14520,1130 S. Marengo Ave.,Pasadena,91106,Los Angeles,(626) 744-7260
Hastings Branch Library,Pasadena Public Library,34.15828,-118.08206,3325 E. Orange Grove Blvd.,Pasadena,91107,Los Angeles,(626) 744-7262
Hill Ave. Branch Library,Pasadena Public Library,34.14508,-118.12189,55 S. Hill Ave.,Pasadena,91106,Los Angeles,(626) 744-7264
La Pintoresca Branch Library,Pasadena Public Library,34.16927,-118.14962,1355 N. Raymond Ave.,Pasadena,91103,Los Angeles,(626) 744-7268
Lamanda Park Branch Library,Pasadena Public Library,34.14344,-118.09834,140 S. Altadena Dr.,Pasadena,91107,Los Angeles,(626) 744-7266
Linda Vista Branch Library,Pasadena Public Library,34.16999,-118.17766,1281 Bryant St.,Pasadena,91103,Los Angeles,(626) 744-7278
Pasadena Central Library,Pasadena Public Library,34.15000,-118.14441,285 E. Walnut St.,Pasadena,91101,Los Angeles,(626) 744-4066
San Rafael Branch Library,Pasadena Public Library,34.13572,-118.17576,1240 Nithsdale,Pasadena,91105,Los Angeles,(626) 744-7270
Santa Catalina Branch Library,Pasadena Public Library,34.16929,-118.12987,999 E. Washington Blvd.,Pasadena,91104,Los Angeles,(626) 744-7272
Villa Parke Community Center Library,Pasadena Public Library,34.15457,-118.14290,363 E. Villa,Pasadena,91101,Los Angeles,(626) 744-6510
Library Study Center,Paso Robles City Library,35.65200,-120.69453,3600 Oak St. #101,Paso Robles,93446,San Luis Obispo,(805) 237-4743
Paso Robles Public Library,Paso Robles City Library,35.62539,-120.69058,1000 Spring St.,Paso Robles,93446,San Luis Obispo,(805) 237-3870
Placentia Library District,Placentia Library District,33.87153,-117.86091,411 E. Chapman Ave.,Placentia,92870,Orange,(714) 528-1925
Applegate Library,Placer County Library,38.99988,-120.99037,18018 Applegate Road,Applegate,95703,Placer,(530) 878-2721
Auburn Library,Placer County Library,38.90517,-121.08074,350 Nevada St.,Auburn,95603,Placer,(530) 886-4501
Colfax Library,Placer County Library,39.09932,-120.95415,10 W.Church St.,Colfax,95713,Placer,(530) 346-8211
Foresthill Library,Placer County Library,39.02003,-120.81656,24580 Main St.,Foresthill,95631,Placer,(530) 367-2785
Granite Bay Library,Placer County Library,38.74423,-121.18066,6475 Douglas Blvd,Granite Bay,95746,Placer,(916) 791-5590
Kings Beach Library,Placer County Library,39.23866,-120.03016,301 Secline Street,Kings Beach,96143,Placer,(530) 546-2021
Penryn Library,Placer County Library,38.85195,-121.16936,2215 Rippey Road,Penryn,95663,Placer,(916) 663-3621
Rocklin Library,Placer County Library,38.78912,-121.22694,4890 Granite Drive,Rocklin,95677,Placer,(916) 624-3133
Tahoe City Library,Placer County Library,39.17277,-120.13825,740 N. Lake Blvd.,Tahoe City,96145,Placer,(530) 583-3382
Pleasanton Public Library,Pleasanton Public Library,37.65753,-121.88063,400 Old Bernal Ave.,Pleasanton,94566,Alameda,(925) 931-3400
Alleghany Station Library,Plumas County Library,39.46923,-120.84299,100 Hope Lane,Alleghany,95910,Sierra,(530) 287-3287
Chester Branch Library,Plumas County Library,40.30937,-121.22711,222 First Ave.,Chester,96020,Plumas,(530) 258-2742
Downieville Station Library,Plumas County Library,39.55932,-120.82784,318 Commercial St.,Downieville,95936,Sierra,(530) 289-3544
Greenville Branch Library,Plumas County Library,40.14015,-120.95207,204 Ann St.,Greenville,95947,Plumas,(530) 284-7416
Loyalton Station Library,Plumas County Library,39.67631,-120.24346,511 Main St.,Loyalton,96118,Sierra,(530) 993-1105
Plumas County Library,Plumas County Library,39.93613,-120.94698,445 Jackson St.,Quincy,95971,Plumas,(530) 283-6310
Portola Branch Library,Plumas County Library,39.80532,-120.46586,34 3Rd Ave.,Portola,96122,Plumas,(530) 832-4241
Sierra City Station Library,Plumas County Library,39.56596,-120.63378,Hwy. 49,Sierra City,96125,Sierra,(530) 862-0210
Pomona Public Library,Pomona Public Library,34.05386,-117.75062,625 S. Garey Ave.,Pomona,91766,Los Angeles,(909) 620-2473
Porterville Public Library,Porterville Public Library,36.06571,-119.02003,"50 W. Olive Ave., Suite B",Porterville,93257,Tulare,(559) 784-0177
Paul A. Biane Library,Rancho Cucamonga Public Library,34.11307,-117.53280,12505 Cultural Center Drive,Rancho Cucamonga,91739,San Bernardino,(909) 477-2720
Archibald Library,Rancho Cucamonga Public Library,34.12012,-117.59402,7368 Archibald Avenue,Rancho Cucamonga,91730,San Bernardino,(909) 477-2720
Rancho Mirage Public Library,Rancho Mirage Public Library,33.74848,-116.42128,71-100 Highway 111,Rancho Mirage,92270,Riverside,(760) 341-7323
Redondo Beach North Branch Library,Redondo Beach Public Library,33.87254,-118.37678,2000 Artesia Boulevard,Redondo Beach,90278,Los Angeles,(310) 318-0677
Redondo Beach Public Library,Redondo Beach Public Library,33.84604,-118.38806,303 N. Pacific Coast Hwy,Redondo Beach,90277,Los Angeles,(310) 318-0675
Redwood City Public Library,Redwood City Public Library,37.48390,-122.22739,1044 Middlefield Road,Redwood City,94063,San Mateo,(650) 780-7061
Redwood Shores Branch Library,Redwood City Public Library,37.53037,-122.25861,399 Marine Parkway,Redwood City,94065,San Mateo,(650) 780-5740
Schaberg Branch Library,Redwood City Public Library,37.46649,-122.24310,2140 Euclid Ave.,Redwood City,94061,San Mateo,(650) 780-7010
Bayview Branch Library,Richmond Public Library,37.91519,-122.32382,5100 Hartnett Avenue,Richmond,94804,Contra Costa,(510) 620-6566
Richmond Public Library,Richmond Public Library,37.93595,-122.34396,325 Civic Center Plaza,Richmond,94804,Contra Costa,(510) 620-6555
West Side Branch Library,Richmond Public Library,37.92729,-122.38433,135 Washington Avenue,Richmond,94801,Contra Costa,(510) 620-6567
Anza Valley Community Library,Riverside County Library System,33.57024,-116.65979,57430 Mitchell Rd,Anza,92539,Riverside,(951) 763-4216
Cabazon Library,Riverside County Library System,33.91042,-116.78098,50425 Carmen Ave,Cabazon,92230,Riverside,(951) 849-8234
Calimesa Library,Riverside County Library System,34.00181,-117.06169,974 Calimesa Blvd,Calimesa,92320,Riverside,(909) 795-9807
Canyon Lake Branch Library,Riverside County Library System,33.67256,-117.25148,31516 Railroad Canyon Rd.,Canyon Lake,92587,Riverside,(951) 244-9181
Cathedral City Branch Library,Riverside County Library System,33.80426,-116.45729,33-520 Date Palm Dr.,Cathedral City,92234,Riverside,(760) 328-4262
Coachella Branch Library,Riverside County Library System,33.67869,-116.17622,1500 Sixth St.,Coachella,92236,Riverside,(760) 398-5148
Desert Hot Springs Branch Library,Riverside County Library System,33.96312,-116.51071,14380 Palm Dr.,Desert Hot Springs,92240,Riverside,(760) 329-5926
Eastvale Community Library,Riverside County Library System,33.95306,-117.56859,7447 Scholar Way,Eastvale,92880,Riverside,(951) 273-1520
El Cerrito Public Library,Riverside County Library System,33.83545,-117.52659,7581 Rudell Road,Corona,92881,Riverside,(951) 270-5012
French Valley Library,Riverside County Library System,33.60863,-117.10909,31526 Skyview Road,Winchester,92596,Riverside,(951) 926-6636
Glen Avon Branch Library,Riverside County Library System,34.00380,-117.48454,9244 Galena,Riverside,92509,Riverside,(951) 685-8121
Grace Mellman Library,Riverside County Library System,33.52667,-117.16062,41000 County Center,Temecula,92591,Riverside,(951) 296-3893
Highgrove Branch Library,Riverside County Library System,34.01541,-117.32322,530 W Center St,Riverside,92507,Riverside,(951) 682-1507
Home Gardens Library,Riverside County Library System,33.87508,-117.52541,3785 Neece Street,Corona,92879,Riverside,(951) 279-2148
Idyllwild Branch Library,Riverside County Library System,33.74369,-116.71378,54401 Village Center Dr,Idyllwild,92549,Riverside,(951) 659-2300
Max T. Mccandless Branch Library Indio,Riverside County Library System,33.71899,-116.21874,200 Civic Center Mall,Indio,92201,Riverside,(760) 347-2383
La Quinta Branch Library,Riverside County Library System,33.67810,-116.29920,78-225 Calle Tampico,La Quinta,92253,Riverside,(760) 564-4767
Altha Merrifield - Lake Elsinore Branch Library,Riverside County Library System,33.66957,-117.33418,600 W. Graham,Lake Elsinore,92530,Riverside,(951) 674-4517
Lake Tamarisk Library,Riverside County Library System,33.73800,-115.39228,43880 Lake Tamarisk Dr.,Desert Center,92239,Riverside,(760) 227-3273
Vick Knight Community Library,Riverside County Library System,33.67012,-117.38060,32593 Riverside Dr,Lake Elsinore,92530,Riverside,(951) 678-7083
Robidoux Branch Library,Riverside County Library System,33.99977,-117.41457,5840 Mission Blvd,Riverside,92509,Riverside,(951) 682-5485
Mead Valley Public Library,Riverside County Library System,33.83396,-117.28676,21580 Oakwood Street,Perris,92570,Riverside,(951) 943-4727
Mecca-North Shore Branch Library,Riverside County Library System,33.56960,-116.07394,91260 Avenue 66,Mecca,92254,Riverside,(760) 396-2363
Menifee Library,Riverside County Library System,33.67582,-117.15935,28798 La Piedra Rd,Menifee,92584,Riverside,(951) 679-2527
Norco Branch Library,Riverside County Library System,33.92926,-117.55944,3240 Hamner Ave.,Norco,92860,Riverside,(951) 735-5329
Nuview Branch Library,Riverside County Library System,33.82403,-117.12894,29990 Lakeview Rd.,Nuevo,92567,Riverside,(951) 928-0769
Palm Desert Branch Library,Riverside County Library System,33.72999,-116.38628,73-300 Fred Waring Dr.,Palm Desert,92260,Riverside,(760) 346-6552
Perris Branch Library,Riverside County Library System,33.78600,-117.22745,163 E. San Jacinto,Perris,92570,Riverside,(951) 657-2358
San Jacinto Branch Library,Riverside County Library System,33.78222,-116.95866,595 S. San Jacinto Ave.,San Jacinto,92583,Riverside,(951) 654-8635
Sun City Branch Library,Riverside County Library System,33.71168,-117.18961,26982 Cherry Hills Blvd.,Sun City,92586,Riverside,(951) 679-3534
Temecula Public Library,Riverside County Library System,33.49696,-117.12289,30600 Pauba Road,Temecula,92592,Riverside,(951) 693-8900
Thousand Palms Library,Riverside County Library System,33.82335,-116.39738,31-189 Robert Rd.,Thousand Palms,92276,Riverside,(760) 343-1556
Valle Vista Library,Riverside County Library System,33.74757,-116.89368,25757 Fairview Ave.,Hemet,92544,Riverside,(951) 927-2611
Wildomar Library,Riverside County Library System,33.62368,-117.29052,34303 Mission Trail,Wildomar,92595,Riverside,(951) 471-3855
Woodcrest Community Library,Riverside County Library System,33.87967,-117.37262,16625 Krameria,Riverside,92504,Riverside,(951) 789-7324
Arlanza Branch,Riverside Public Library,33.93926,-117.46231,8267 Philbin Ave.,Riverside,92503,Riverside,(951) 826-2217
Arlington Branch Library,Riverside Public Library,33.91951,-117.44742,9556 Magnolia Ave.,Riverside,92503,Riverside,(951) 826-2291
Casa Blanca Branch Library,Riverside Public Library,33.93036,-117.39979,2985 Madison St.,Riverside,92504,Riverside,(951) 826-2120
Eastside Library & Cybrary,Riverside Public Library,33.97355,-117.34848,4033 Chicago St. Suite C,Riverside,92507,Riverside,(951) 826-2235
La Sierra Branch Library,Riverside Public Library,33.91560,-117.48663,4600 La Sierra,Riverside,92505,Riverside,(951) 826-2461
Marcy Branch Library,Riverside Public Library,33.94800,-117.40080,6927 Magnolia Avenue,Riverside,92506,Riverside,(951) 826-2078
Orange Terrace,Riverside Public Library,33.89509,-117.31261,20010-B Orange Terrace Pkwy,Riverside,92508,Riverside,(951) 826-2184
Riverside Public Main Library,Riverside Public Library,33.98301,-117.37145,3900 Mission Inn Ave.,Riverside,92501,Riverside,(951) 826-5201
Maidu Library,Roseville Public Library,38.73553,-121.25311,1530 Maidu Drive,Roseville,95661,Placer,(916) 774-5221
Martha Riley Community Library,Roseville Public Library,38.76751,-121.33203,1501 Pleasant Grove Blvd,Roseville,95747,Placer,(916) 774-5221
Downtown Library,Roseville Public Library,38.74616,-121.28465,225 Taylor St.,Roseville,95678,Placer,(916) 774-5221
Arcade Library,Sacramento Public Library,38.61861,-121.40409,2443 Marconi Ave.,Sacramento,95821,Sacramento,(916) 264-2700
Arden-Dimick Library,Sacramento Public Library,38.58088,-121.38360,891 Watt Ave.,Sacramento,95864,Sacramento,(916) 264-2700
Carmichael Library,Sacramento Public Library,38.61765,-121.33423,5605 Marconi Ave.,Carmichael,95608,Sacramento,(916) 264-2700
Sacramento Central Library,Sacramento Public Library,38.58167,-121.49508,828 I Street,Sacramento,95814,Sacramento,(916) 264-2700
Colonial Heights Library,Sacramento Public Library,38.53256,-121.44531,4799 Stockton Blvd.,Sacramento,95820,Sacramento,(916) 264-2700
Belle Cooledge Library,Sacramento Public Library,38.52406,-121.51193,5600 South Land Park Dr.,Sacramento,95822,Sacramento,(916) 264-2700
Courtland Library,Sacramento Public Library,38.33063,-121.56637,170 Primasing Ave,Courtland,95615,Sacramento,(916) 264-2700
Del Paso Heights Library,Sacramento Public Library,38.63614,-121.44531,920 Grand Ave.,Sacramento,95838,Sacramento,(916) 264-2700
Elk Grove Library,Sacramento Public Library,38.40874,-121.37118,8900 Elk Grove Blvd.,Elk Grove,95624,Sacramento,(916) 264-2700
Fair Oaks Library,Sacramento Public Library,38.66258,-121.26313,11601 Fair Oaks Blvd.,Fair Oaks,95628,Sacramento,(916) 264-2700
Franklin Library,Sacramento Public Library,38.39202,-121.43147,10055 Franklin High Road,Elk Grove,95757,Sacramento,(916) 264-2700
Marian O. Lawrence (Galt) Library,Sacramento Public Library,38.25113,-121.29585,1000 Caroline Ave.,Galt,95632,Sacramento,(916) 264-2700
Isleton Branch Library,Sacramento Public Library,38.16163,-121.60866,412 Union Street,Isleton,95641,Sacramento,(916) 264-2700
Martin Luther King Jr. Library,Sacramento Public Library,38.49122,-121.48088,7340 - 24Th St. Bypass,Sacramento,95822,Sacramento,(916) 264-2700
Ella K. Mcclatchy Library,Sacramento Public Library,38.56351,-121.48292,2112 22Nd St.,Sacramento,95818,Sacramento,(916) 264-2700
Mckinley Library,Sacramento Public Library,38.57678,-121.46280,601 Alhambra Blvd.,Sacramento,95816,Sacramento,(916) 264-2700
North Highlands-Antelope Library,Sacramento Public Library,38.70464,-121.36479,4235 Antelope Road,Antelope,95843,Sacramento,(916) 264-2700
North Natomas Library,Sacramento Public Library,38.65746,-121.51799,4660 Via Ingoglia,Sacramento,95835,Sacramento,(916) 264-2700
North Sacramento/Hagginwood Library,Sacramento Public Library,38.61009,-121.45140,2109 Del Paso Blvd.,Sacramento,95815,Sacramento,(916) 264-2700
Orangevale Library,Sacramento Public Library,38.67780,-121.22966,"8820 Greenback Lane, #L",Orangevale,95662,Sacramento,(916) 264-2700
Pocket-Greenhaven,Sacramento Public Library,38.49370,-121.53680,7335 Gloria Drive,Sacramento,95831,Sacramento,(916) 429-0926
Rancho Cordova Library,Sacramento Public Library,38.57655,-121.32920,9845 Folsom Blvd.,Sacramento,95827,Sacramento,(916) 264-2700
Rio Linda Library,Sacramento Public Library,38.68942,-121.45159,631 L Street,Rio Linda,95673,Sacramento,(916) 264-2700
South Natomas Library,Sacramento Public Library,38.61892,-121.50009,2901 Truxel Road,Sacramento,95833,Sacramento,(916) 264-2700
Southgate Library,Sacramento Public Library,38.49204,-121.43370,6132 66Th Ave.,Sacramento,95823,Sacramento,(916) 264-2700
Sylvan Oaks Library,Sacramento Public Library,38.68664,-121.30750,6700 Auburn Blvd.,Citrus Heights,95621,Sacramento,(916) 264-2700
Valley-Hi North Laguna Library,Sacramento Public Library,38.45237,-121.41735,7400 Imagination Parkway,Sacramento,95823,Sacramento,(916) 264-2700
Walnut Grove Library,Sacramento Public Library,38.24078,-121.51402,14177 Market St.,Walnut Grove,95690,Sacramento,(916) 264-2700
Cesar Chavez Library,Salinas Public Library,36.68046,-121.60685,615 Williams Rd.,Salinas,93905,Monterey,(831) 758-7345
El Gabilan Library,Salinas Public Library,36.70506,-121.65251,1400 N. Main St.,Salinas,93906,Monterey,(831) 758-7302
John Steinbeck Library,Salinas Public Library,36.67202,-121.65729,350 Lincoln Ave.,Salinas,93901,Monterey,(831) 758-7311
San Anselmo Public Library,San Anselmo Public Library,37.97446,-122.56299,110 Tunstead Ave.,San Anselmo,94960,Marin,(415) 258-4656
San Benito County Free Library,San Benito County Free Library,36.85178,-121.40512,470 Fifth St.,Hollister,95023,San Benito,(831) 636-4107
Adelanto Branch Library,San Bernardino County Library,34.57856,-117.41464,11497 Bartlett,Adelanto,92301,San Bernardino,(760) 246-5661
Newton T. Bass Apple Valley Branch Library,San Bernardino County Library,34.52438,-117.21520,14901 Dale Evans Parkway,Apple Valley,92307,San Bernardino,(760) 247-2022
Barstow Branch Library,San Bernardino County Library,34.89527,-117.02428,304 E. Buena Vista,Barstow,92311,San Bernardino,(760) 256-4850
Big Bear Lake Branch Library,San Bernardino County Library,34.24641,-116.88726,41930 Garstin Dr.,Big Bear Lake,92315,San Bernardino,(909) 866-5571
Bloomington Branch Library,San Bernardino County Library,34.07087,-117.41101,18028 Valley Blvd,Bloomington,92316,San Bernardino,(909) 820-0533
Cal Aero Preserve Academy Branch Library,San Bernardino County Library,33.96535,-117.62343,15850 Main Street,Chino,91708,San Bernardino,(909) 606-2173
Carter Branch Library,San Bernardino County Library,34.14813,-117.40361,2630 N. Linden Avenue,Rialto,92377,San Bernardino,(909) 854-4100
Chino Branch Library,San Bernardino County Library,34.01396,-117.68973,13180 Central Ave.,Chino,91710,San Bernardino,(909) 465-5280
Chino Hills,San Bernardino County Library,33.99744,-117.73046,14020 City Center Drive,Chino Hills,91709,San Bernardino,(909) 590-5380
Crestline Branch Library,San Bernardino County Library,34.24199,-117.27703,24105 Lake Gregory Dr.,Crestline,92325,San Bernardino,(909) 338-3294
Fontana Lewis Library and Technology Center,San Bernardino County Library,34.10080,-117.43517,8437 Sierra Avenue,Fontana,92335,San Bernardino,(909) 574-4500
Grand Terrace Branch Library,San Bernardino County Library,34.03517,-117.30697,22795 Barton Rd.,Grand Terrace,92313,San Bernardino,(909) 783-0147
Hesperia Branch Library,San Bernardino County Library,34.42645,-117.31656,9650 Seventh Ave.,Hesperia,92345,San Bernardino,(760) 244-4898
Highland Sam J. Racadio Library and Environmental Learning Center,San Bernardino County Library,34.11064,-117.21658,7863 Central Avenue,Highland,92346,San Bernardino,(909) 425-4700
Joshua Tree Branch Library,San Bernardino County Library,34.13560,-116.31495,6465 Park Blvd.,Joshua Tree,92252,San Bernardino,(760) 366-8615
Kaiser Branch Library,San Bernardino County Library,34.05063,-117.49252,11155 Almond Ave.,Fontana,92337,San Bernardino,(909) 357-5900
Lake Arrowhead Branch Library,San Bernardino County Library,34.24641,-117.20923,27235 Highway 189,Blue Jay,92317,San Bernardino,(909) 337-3118
Loma Linda Branch Library,San Bernardino County Library,34.04723,-117.24637,25581 Barton Road,Loma Linda,92354,San Bernardino,(909) 796-8621
Janice Horst Lucerne Valley Branch Library,San Bernardino County Library,34.44360,-116.94111,33103 Old Woman Springs Rd.,Lucerne Valley,92356,San Bernardino,(760) 248-7521
Mentone Senior Center and Library,San Bernardino County Library,34.07091,-117.13419,1331 Opal Avenue,Mentone,92359,San Bernardino,(909) 794-0327
Montclair Branch Library,San Bernardino County Library,34.07282,-117.69326,9955 Fremont Ave.,Montclair,91763,San Bernardino,(909) 624-4671
Muscoy Baker Family Learning Center,San Bernardino County Library,34.14732,-117.34038,2818 Macy Street,Muscoy,92407,San Bernardino,(909) 887-5167
Needles Branch Library,San Bernardino County Library,34.83457,-114.61786,1111 Bailey,Needles,92363,San Bernardino,(760) 326-9255
Phelan Memorial Library,San Bernardino County Library,34.42844,-117.57536,9800 Clovis Road,Phelan,92371,San Bernardino,(760) 868-3054
Rialto Branch Library,San Bernardino County Library,34.10029,-117.37400,251 W. First St.,Rialto,92376,San Bernardino,(909) 875-0144
Running Springs Branch Library,San Bernardino County Library,34.20635,-117.10478,2677 Whispering Pines,Running Springs,92382,San Bernardino,(909) 867-2554
Summit Branch Library,San Bernardino County Library,34.14826,-117.46441,15551 Summit Avenue,Fontana,92336,San Bernardino,(909) 357-5950
Trona Branch Library,San Bernardino County Library,35.75773,-117.37875,82805 Mt. View St.,Trona,93562,San Bernardino,(760) 372-5847
Twentynine Palms Branch Library,San Bernardino County Library,34.14339,-116.05473,6078 Adobe Rd.,Twentynine Palms,92277,San Bernardino,(760) 367-9519
Wrightwood Branch Library,San Bernardino County Library,34.35973,-117.63504,6011 Pine Street,Wrightwood,92397,San Bernardino,(760) 249-4577
Yucaipa Branch Library,San Bernardino County Library,34.03503,-117.05668,12040 Fifth St.,Yucaipa,92399,San Bernardino,(909) 790-3146
Yucca Valley Branch Library,San Bernardino County Library,34.12258,-116.41820,57098 Twentynine Palms Hwy.,Yucca Valley,92284,San Bernardino,(760) 228-5455
Dorothy Inghram Branch Library,San Bernardino Public Library,34.13543,-117.31858,1505 W. Highland Ave.,San Bernardino,92411,San Bernardino,(909) 887-4494
Howard M. Rowe Branch Library,San Bernardino Public Library,34.14978,-117.28474,108 E. Marshall Blvd.,San Bernardino,92404,San Bernardino,(909) 883-3411
Norman F. Feldheym Library,San Bernardino Public Library,34.10958,-117.29540,555 W. Sixth St.,San Bernardino,92410,San Bernardino,(909) 381-8201
Paul Villasenor Branch Library,San Bernardino Public Library,34.10891,-117.31358,525 N. Mt. Vernon Ave.,San Bernardino,92411,San Bernardino,(909) 383-5156
San Bruno Public Library,San Bruno Public Library,37.62521,-122.41492,701 Angus Ave. W.,San Bruno,94066,San Mateo,(650) 616-7078
4S Ranch,San Diego County Library,33.02112,-117.11439,10433 Reserve Dr,San Diego,92127,San Diego,(858) 673-4697
Alpine Library,San Diego County Library,32.83785,-116.77617,1752 Alpine Boulevard,Alpine,91901,San Diego,(619) 445-4221
Bonita-Sunnyside Library,San Diego County Library,32.66143,-117.03431,4375 Bonita Rd,Bonita,91902,San Diego,(619) 475-4642
Borrego Springs Library,San Diego County Library,33.25607,-116.38006,2580 Country Club Road,Borrego Springs,92004,San Diego,(760) 767-5761
Campo-Morena Village Library,San Diego County Library,32.62440,-116.47540,31356 Highway 94,Campo,91906,San Diego,(619) 478-5945
Cardiff Library,San Diego County Library,33.02203,-117.28144,2081 Newcastle Avenue,Cardiff,92007,San Diego,(760) 753-4027
Casa De Oro Library,San Diego County Library,32.74708,-116.98515,9805 Campo Rd. #180,Spring Valley,91977,San Diego,(619) 463-3236
Crest Library,San Diego County Library,32.80397,-116.86752,105 Juanita Lane,El Cajon,92021,San Diego,(619) 442-7083
Del Mar Library,San Diego County Library,32.95787,-117.26426,1309 Camino Del Mar,Del Mar,92014,San Diego,(858) 755-1666
Descanso Library,San Diego County Library,32.85925,-116.61478,9545 River Drive,Descanso,91916,San Diego,(619) 445-5279
El Cajon Library,San Diego County Library,32.79310,-116.96068,201 E. Douglas Ave,El Cajon,92020,San Diego,(619) 588-3718
Encinitas Library,San Diego County Library,33.04561,-117.29088,540 Cornish Dr.,Encinitas,92024,San Diego,(760) 753-7376
Fallbrook Library,San Diego County Library,33.38142,-117.25324,124 South Mission Road,Fallbrook,92028,San Diego,(760) 731-4650
Fletcher Hills Library,San Diego County Library,32.80188,-116.99777,576 Garfield Ave.,El Cajon,92020,San Diego,(619) 466-1132
Imperial Beach Library,San Diego County Library,32.57683,-117.11632,810 Imperial Beach Blvd.,Imperial Beach,91932,San Diego,(619) 424-6981
Jacumba Library,San Diego County Library,32.61733,-116.18713,44605 Old Highway 80,Jacumba,91934,San Diego,(619) 766-4608
Julian Library,San Diego County Library,33.07699,-116.59651,1850 Highway 78,Julian,92036,San Diego,(760) 765-0370
La Mesa Library,San Diego County Library,32.76623,-117.02328,8074 Allison Ave.,La Mesa,91942,San Diego,(619) 469-2151
Lakeside Library,San Diego County Library,32.85880,-116.92055,9839 Vine St.,Lakeside,92040,San Diego,(619) 443-1811
Lemon Grove Library,San Diego County Library,32.73866,-117.02936,3001 School Lane,Lemon Grove,91945,San Diego,(619) 463-9819
Lincoln Acres Library,San Diego County Library,32.66661,-117.07141,2725 Granger Avenue,National City,91950,San Diego,(619) 475-9880
Pine Valley Library,San Diego County Library,32.82368,-116.53135,28804 Old Highway 80,Pine Valley,91962,San Diego,(619) 473-8022
Potrero Library,San Diego County Library,32.61123,-116.61263,24883 Potrero Valley Road,Potrero,91963,San Diego,(619) 478-5978
Poway Library,San Diego County Library,32.95599,-117.04580,13137 Poway Road,Poway,92064,San Diego,(858) 513-2900
Ramona Library,San Diego County Library,33.03997,-116.87314,1275 Main Street,Ramona,92065,San Diego,(760) 788-5270
Rancho San Diego Library,San Diego County Library,32.74941,-116.92902,11555 Via Rancho San Diego,El Cajon,92019,San Diego,(619) 660-5370
Rancho Santa Fe Library,San Diego County Library,33.02100,-117.20555,17040 Avenida De Acacias,Rancho Santa Fe,92067,San Diego,(858) 756-2512
San Marcos Library,San Diego County Library,33.14124,-117.16053,2 Civic Center Drive,San Marcos,92069,San Diego,(760) 891-3000
Santee Library,San Diego County Library,32.84504,-116.99741,9225 Carlton Hills Blvd. #17,Santee,92071,San Diego,(619) 448-1863
Solana Beach Library,San Diego County Library,32.99443,-117.26260,157 Stevens Avenue,Solana Beach,92075,San Diego,(858) 755-1404
Spring Valley Library,San Diego County Library,32.71231,-117.00240,836 Kempton Street,Spring Valley,91977,San Diego,(619) 463-3006
Valley Center Library,San Diego County Library,33.24255,-117.02446,29200 Cole Grade Road,Valley Center,92082,San Diego,(760) 749-1305
Vista Library,San Diego County Library,33.20192,-117.23264,700 Eucalyptus Ave.,Vista,92084,San Diego,(760) 643-5100
Allied Gardens / Benjamin Branch Library,San Diego Public Library,32.79311,-117.08148,5188 Zion Ave.,San Diego,92120,San Diego,(619) 533-3970
Balboa Branch Library,San Diego Public Library,32.82236,-117.17495,4255 Mt. Abernathy Ave.,San Diego,92117,San Diego,(858) 573-1390
Mountain View/Beckwourth Branch Library,San Diego Public Library,32.69803,-117.10262,721 San Pasqual St.,San Diego,92113,San Diego,(619) 527-3404
Carmel Mountain Ranch Branch Library,San Diego Public Library,32.98166,-117.07375,12095 World Trade Dr.,San Diego,92128,San Diego,(858) 538-8181
Carmel Valley Branch Library,San Diego Public Library,32.95224,-117.23069,3919 Townsgate Dr.,San Diego,92130,San Diego,(858) 552-1668
City Heights / Weingart Branch,San Diego Public Library,32.74745,-117.10037,3795 Fairmount Ave.,San Diego,92105,San Diego,(619) 641-6100
Clairemont Branch Library,San Diego Public Library,32.79363,-117.19400,2920 Burgener Blvd.,San Diego,92110,San Diego,(858) 581-9935
College-Rolando Branch Library,San Diego Public Library,32.76937,-117.05610,6600 Montezuma Road,San Diego,92115,San Diego,(619) 533-3902
Kensington-Normal Heights Branch Library,San Diego Public Library,32.76307,-117.10679,4121 Adams Ave.,San Diego,92116,San Diego,(619) 533-3974
Linda Vista Branch Library,San Diego Public Library,32.78329,-117.17002,2160 Ulric St.,San Diego,92111,San Diego,(858) 573-1399
Logan Heights Branch Library,San Diego Public Library,32.69997,-117.13319,567 S. 28Th St.,San Diego,92113,San Diego,(619) 533-3968
"Valencia/Malcolm X Library & Performing Arts Center, Valencia",San Diego Public Library,32.71076,-117.08391,5148 Market St.,San Diego,92114,San Diego,(619) 527-3405
Mira Mesa Branch Library,San Diego Public Library,32.91522,-117.14266,8405 New Salem St.,San Diego,92126,San Diego,(858) 538-8165
Mission Hills Branch Library,San Diego Public Library,32.74960,-117.17196,925 W. Washington Street,San Diego,92103,San Diego,(619) 692-4910
Mission Valley,San Diego Public Library,32.77926,-117.12689,2123 Fenton Pkwy,San Diego,92108,San Diego,(858) 487-3751
North Clairemont Branch Library,San Diego Public Library,32.82837,-117.20650,4616 Clairemont Dr.,San Diego,92117,San Diego,(858) 581-9931
North Park Branch Library,San Diego Public Library,32.74720,-117.12680,3795 31St St.,San Diego,92104,San Diego,(619) 533-3972
North University Community Branch Library,San Diego Public Library,32.86762,-117.19917,8820 Judicial Drive,San Diego,92122,San Diego,(858) 581-9637
Oak Park Branch Library,San Diego Public Library,32.73505,-117.08008,2802 54Th St.,San Diego,92105,San Diego,(619) 527-3406
Ocean Beach Branch Library,San Diego Public Library,32.74548,-117.24722,4801 Santa Monica Ave.,San Diego,92107,San Diego,(619) 531-1532
Otay Mesa-Nestor Branch Library,San Diego Public Library,32.57668,-117.06796,3003 Coronado Ave.,San Diego,92154,San Diego,(619) 424-0474
Pacific Beach / Earl & Birdie Taylor Branch Library,San Diego Public Library,32.79421,-117.24993,4275 Cass St.,San Diego,92109,San Diego,(858) 581-9934
Paradise Hills Branch Library,San Diego Public Library,32.67267,-117.06118,5922 Rancho Hills Dr.,San Diego,92139,San Diego,(619) 527-3461
Point Loma/Hervey Branch Libray,San Diego Public Library,32.74012,-117.22944,3701 Voltaire Street,San Diego,92107,San Diego,(619) 531-1539
Rancho Bernardo Branch Library,San Diego Public Library,33.02492,-117.07541,17110 Bernardo Center Dr.,San Diego,92128,San Diego,(858) 538-8163
Rancho Penasquitos Branch Library,San Diego Public Library,32.95946,-117.12209,13355 Salmon River Rd.,San Diego,92129,San Diego,(858) 538-8159
La Jolla / Riford Branch Library,San Diego Public Library,32.84092,-117.27615,7555 Draper Avenue,La Jolla,92037,San Diego,(858) 552-1657
San Carlos Branch Library,San Diego Public Library,32.80200,-117.04057,7265 Jackson Dr.,San Diego,92119,San Diego,(619) 527-3430
San Diego Central Library,San Diego Public Library,32.70821,-117.15428,820 E St.,San Diego,92101,San Diego,(619) 236-5830
San Ysidro Branch Library,San Diego Public Library,32.55813,-117.04348,4235 Beyer Blvd.,San Diego,92173,San Diego,(619) 424-0475
Scripps Miramar Ranch Library Center,San Diego Public Library,32.91124,-117.10532,10301 Scripps Lake Drive,San Diego,92131,San Diego,(858) 538-8158
Serra Mesa Branch Library,San Diego Public Library,32.80919,-117.13367,9005 Aero Drive,San Diego,92123,San Diego,(858) 573-1396
Skyline Hills Branch Library,San Diego Public Library,32.69715,-117.02661,7900 Paradise Valley Road,San Diego,92139,San Diego,(619) 527-3485
Tierrasanta Branch Library,San Diego Public Library,32.82083,-117.09805,4985 La Cuenta Dr.,San Diego,92124,San Diego,(858) 573-1384
University Community Branch Library,San Diego Public Library,32.85403,-117.20096,4155 Governor Dr.,San Diego,92122,San Diego,(858) 552-1655
University Heights Branch Library,San Diego Public Library,32.75384,-117.14591,4193 Park Blvd.,San Diego,92103,San Diego,(619) 692-4912
Anza Branch Library,San Francisco Public Library,37.77860,-122.49727,550 37Th Ave.,San Francisco,94121,San Francisco,(415) 355-5717
Bayview Linda Brooks-Burton Branch Library,San Francisco Public Library,37.73255,-122.39120,5075 Third St.,San Francisco,94124,San Francisco,(415) 355-5757
Bernal Heights Branch Library,San Francisco Public Library,37.73886,-122.41613,500 Cortland Ave.,San Francisco,94110,San Francisco,(415) 335-2810
Chinatown - Him Mark Lai Branch Library,San Francisco Public Library,37.79521,-122.41023,1135 Powell St.,San Francisco,94108,San Francisco,(415) 355-2888
Eureka Valley - Harvey Milk Memorial Branch Library,San Francisco Public Library,37.75614,-122.43257,1 Jose Saria Ct.,San Francisco,94114,San Francisco,(415) 355-5616
Excelsior Branch Library,San Francisco Public Library,37.72713,-122.43335,4400 Mission St.,San Francisco,94112,San Francisco,(415) 355-2868
Glen Park Branch Library,San Francisco Public Library,37.73396,-122.43369,2825 Diamond St.,San Francisco,94131,San Francisco,(415) 355-2858
Golden Gate Valley Branch Library,San Francisco Public Library,37.79681,-122.42905,1801 Green St.,San Francisco,94123,San Francisco,(415) 355-5666
Ingleside Branch Library,San Francisco Public Library,37.72415,-122.45626,1298 Ocean Ave.,San Francisco,94112,San Francisco,(415) 355-2898
Marina Branch Library,San Francisco Public Library,37.80132,-122.43415,1890 Chestnut St.,San Francisco,94123,San Francisco,(415) 355-2823
Merced Branch Library,San Francisco Public Library,37.72671,-122.47448,155 Winston Dr.,San Francisco,94132,San Francisco,(415) 355-2825
Mission Branch Library,San Francisco Public Library,37.75197,-122.41987,1234 Valencia Street,San Francisco,94110,San Francisco,(415) 355-2800
Mission Bay Branch Library,San Francisco Public Library,37.77543,-122.39312,960 4Th St.,San Francisco,94158,San Francisco,(415) 355-2838
Noe Valley - Sally Brunn Branch Library,San Francisco Public Library,37.75027,-122.43509,451 Jersey St.,San Francisco,94114,San Francisco,(415) 355-5707
North Beach Branch Library,San Francisco Public Library,37.80258,-122.41327,850 Columbus Ave.,San Francisco,94133,San Francisco,(415) 355-5626
Ocean View Branch Library,San Francisco Public Library,37.71415,-122.46599,345 Randolph St.,San Francisco,94132,San Francisco,(415) 355-5615
Ortega Branch Library,San Francisco Public Library,37.75120,-122.49810,3223 Ortega St.,San Francisco,94122,San Francisco,(415) 355-5700
Park Branch Library,San Francisco Public Library,37.77016,-122.45101,1833 Page St.,San Francisco,94117,San Francisco,(415) 355-5656
Parkside Branch Library,San Francisco Public Library,37.74318,-122.47941,1200 Taraval St.,San Francisco,94116,San Francisco,(415) 355-5770
Portola Branch Library,San Francisco Public Library,37.72708,-122.40633,380 Bacon St.,San Francisco,94134,San Francisco,(415) 355-5660
Potrero Branch Library,San Francisco Public Library,37.76014,-122.39766,1616 20Th St.,San Francisco,94107,San Francisco,(415) 355-2822
Presidio Branch Library,San Francisco Public Library,37.78889,-122.44487,3150 Sacramento St.,San Francisco,94115,San Francisco,(415) 355-2880
Richmond - Sen. Milton Marks Branch Library,San Francisco Public Library,37.78184,-122.46817,351 9Th Ave.,San Francisco,94118,San Francisco,(415) 355-5600
San Francisco Main Library,San Francisco Public Library,37.77916,-122.41581,100 Larkin St.,San Francisco,94102,San Francisco,(415) 557-4400
Sunset Branch Library,San Francisco Public Library,37.76336,-122.47629,1305 18Th Ave.,San Francisco,94122,San Francisco,(415) 355-2808
Visitacion Valley Branch Library,San Francisco Public Library,37.71243,-122.40792,201 Leland Ave.,San Francisco,94134,San Francisco,(415) 355-2848
West Portal Branch Library,San Francisco Public Library,37.74138,-122.46621,190 Lenox Way,San Francisco,94127,San Francisco,(415) 355-2886
Western Addition Branch Library,San Francisco Public Library,37.78408,-122.43748,1550 Scott St.,San Francisco,94115,San Francisco,(415) 355-5727
Almaden Branch Library,San Jose Public Library,37.22150,-121.86902,6445 Camden Ave,San Jose,95120,Santa Clara,(408) 808-3040
Alviso Library,San Jose Public Library,37.42462,-121.96904,5050 N. 1St St.,San Jose,95002,Santa Clara,(408) 263-3626
Bascom Library And Community Center,San Jose Public Library,37.30763,-121.93140,1000 South Bascom Ave,San Jose,95128,Santa Clara,(408) 808-3077
Berryessa Library,San Jose Public Library,37.39394,-121.84074,3355 Noble Ave.,San Jose,95132,Santa Clara,(408) 808-3050
Biblioteca Latinoamericana,San Jose Public Library,37.32235,-121.88036,921 S. 1St St.,San Jose,95110,Santa Clara,(408) 294-1237
Calabazas Branch Library,San Jose Public Library,37.30262,-122.02345,1230 S Blaney Ave,San Jose,95129,Santa Clara,(408) 808-3066
Cambrian Library,San Jose Public Library,37.26441,-121.91504,1780 Hillsdale Ave.,San Jose,95124,Santa Clara,(408) 808-3080
Dr. Roberto Cruz Alum Rock Branch Library,San Jose Public Library,37.36539,-121.82806,3090 Alum Rock Ave,San Jose,95127,Santa Clara,(408) 808-3090
East San Jose Carnegie Library,San Jose Public Library,37.34647,-121.86822,1102 E. Santa Clara St.,San Jose,95116,Santa Clara,(408) 808-3075
Edenvale Branch Library,San Jose Public Library,37.26771,-121.82112,101 Branham Lane East,San Jose,95111,Santa Clara,(408) 808-3036
Educational Park Branch Library,San Jose Public Library,37.36565,-121.85777,1772 Educational Park Dr,San Jose,95133,Santa Clara,(408) 808-3073
Evergreen Branch Library,San Jose Public Library,37.31380,-121.79585,2635 Aborn Rd.,San Jose,95121,Santa Clara,(408) 808-3060
Hillview Library,San Jose Public Library,37.33786,-121.83108,1600 Hopkins Dr.,San Jose,95122,Santa Clara,(408) 808-3033
Joyce Ellington Branch Library,San Jose Public Library,37.34984,-121.88695,491 E Empire St,San Jose,95112,Santa Clara,(408) 808-3043
"Dr. Martin Luther King, Jr. Library",San Jose Public Library,37.33569,-121.88526,150 E San Fernando Street,San Jose,95112,Santa Clara,(408) 808-2000
Mt. Pleasant Neighborhood Library,San Jose Public Library,37.35244,-121.80076,3411 Rocky Mountain Dr.,San Jose,95127,Santa Clara,(408) 808-3088
Pearl Avenue Library,San Jose Public Library,37.26789,-121.86631,4270 Pearl Avenue,San Jose,95136,Santa Clara,(408) 808-3053
Rose Garden Library,San Jose Public Library,37.33189,-121.92627,1580 Naglee Ave.,San Jose,95126,Santa Clara,(408) 808-3070
Santa Teresa Library,San Jose Public Library,37.23750,-121.79976,290 International Cir.,San Jose,95119,Santa Clara,(408) 808-3068
Seven Trees Branch Library,San Jose Public Library,37.28497,-121.83326,3590 Cas Dr,San Jose,95111,Santa Clara,(408) 808-3056
Tully Community Branch Library,San Jose Public Library,37.31142,-121.84092,880 Tully Rd,San Jose,95111,Santa Clara,(408) 808-3030
Village Square Branch Library,San Jose Public Library,37.31341,-121.77448,4001 Evergreen Village Square,San Jose,95135,Santa Clara,(408) 808-3093
Vineland Branch Library,San Jose Public Library,37.24018,-121.89249,1450 Blossom Hill Rd,San Jose,95118,Santa Clara,(408) 808-3000
West Valley Library,San Jose Public Library,37.30237,-121.97939,1243 San Tomas Aquino Rd.,San Jose,95117,Santa Clara,(408) 244-4747
Willow Glen Branch Library,San Jose Public Library,37.30294,-121.90006,1157 Minnesota Ave.,San Jose,95125,Santa Clara,(408) 808-3045
Carl Martin Luck Memorial Library,San Juan Bautista City Library,36.84751,-121.54052,801 Second St.,San Juan Bautista,95045,San Benito,(831) 623-4687
Manor Branch Library,San Leandro Public Library,37.69147,-122.15265,1241 Manor Blvd,San Leandro,94579,Alameda,(510) 577-7970
Mulford-Marina Branch Library,San Leandro Public Library,37.69785,-122.18230,13699 Aurora Dr.,San Leandro,94577,Alameda,(510) 577-7976
San Leandro Public Main Library,San Leandro Public Library,37.72605,-122.15394,300 Estudillo Ave.,San Leandro,94577,Alameda,(510) 577-3970
South Branch Library,San Leandro Public Library,37.70870,-122.13400,14799 E. 14Th St.,San Leandro,94578,Alameda,(510) 577-7980
Atascadero Library,San Luis Obispo City-County Library,35.48919,-120.66391,6555 Capistrano,Atascadero,93422,San Luis Obispo,(805) 461-6161
Cambria Library,San Luis Obispo City-County Library,35.56497,-121.09625,1043 Main St.,Cambria,93428,San Luis Obispo,(805) 927-4336
Cayucos Library,San Luis Obispo City-County Library,35.45230,-120.90556,310 B Street,Cayucos,93430,San Luis Obispo,(805) 995-3312
Creston Library,San Luis Obispo City-County Library,35.51886,-120.52362,6290 Adams,Creston,93432,San Luis Obispo,(805) 239-3010
Los Osos Library,San Luis Obispo City-County Library,35.31325,-120.83756,2075 Palisades Ave.,Los Osos,93402,San Luis Obispo,(805) 528-1862
Morro Bay Library,San Luis Obispo City-County Library,35.36716,-120.84626,625 Harbor St.,Morro Bay,93442,San Luis Obispo,(805) 772-6394
Nipomo Library,San Luis Obispo City-County Library,35.02891,-120.49701,918 W. Tefft,Nipomo,93444,San Luis Obispo,(805) 929-3994
Oceano,San Luis Obispo City-County Library,35.10257,-120.61236,1551 17Th Street,Oceano,93445,San Luis Obispo,(805) 474-7478
San Luis Obispo City-County Library,San Luis Obispo City-County Library,35.28226,-120.66219,995 Palm St.,San Luis Obispo,93401,San Luis Obispo,(805) 781-5991
San Miguel Library,San Luis Obispo City-County Library,35.75154,-120.69831,254 13Th St.,San Miguel,93451,San Luis Obispo,(805) 467-3224
Santa Margarita Library,San Luis Obispo City-County Library,35.38823,-120.60816,9630 Murphy St.,Santa Margarita,93453,San Luis Obispo,(805) 438-5622
Shandon Library,San Luis Obispo City-County Library,35.65524,-120.37557,240 East Centre Street,Shandon,93461,San Luis Obispo,(805) 237-3009
Shell Beach Library,San Luis Obispo City-County Library,35.15465,-120.66964,230 Leeward Avenue,Shell Beach,93449,San Luis Obispo,(805) 773-2263
South County Library,San Luis Obispo City-County Library,35.12454,-120.58974,800 W. Branch St.,Arroyo Grande,93420,San Luis Obispo,(805) 473-7161
Atherton Library,San Mateo County Libraries,37.46319,-122.19693,2 Dinkelspiel Station Lane,Atherton,94027,San Mateo,(833) 937-7625
Belmont Library,San Mateo County Libraries,37.50882,-122.29318,1110 Alameda De Las Pulgas,Belmont,94002,San Mateo,(833) 937-7625
Brisbane Library,San Mateo County Libraries,37.68281,-122.40377,163 Visitacion Ave.,Brisbane,94005,San Mateo,(833) 937-7625
East Palo Alto Library,San Mateo County Libraries,37.47235,-122.13992,2415 University Ave.,East Palo Alto,94303,San Mateo,(833) 937-7625
Foster City Library,San Mateo County Libraries,37.55867,-122.27073,1000 E. Hillsdale Blvd.,Foster City,94404,San Mateo,(833) 937-7625
Half Moon Bay Library,San Mateo County Libraries,37.46486,-122.43283,225 Cabrillo Highway South #104B,Half Moon Bay,94019,San Mateo,(833) 937-7625
Millbrae Library,San Mateo County Libraries,37.60231,-122.39695,1 Library Ave.,Millbrae,94030,San Mateo,(833) 937-7625
North Fair Oaks Library,San Mateo County Libraries,37.47733,-122.21424,2510 Middlefield Rd,Redwood City,94063,San Mateo,(833) 937-7625
Pacifica Library,San Mateo County Libraries,37.63217,-122.49193,104 Hilton Way,Pacifica,94044,San Mateo,(833) 937-7625
Portola Valley Library,San Mateo County Libraries,37.38195,-122.22998,765 Portola Road,Portola Valley,94028,San Mateo,(833) 937-7625
San Carlos Library,San Mateo County Libraries,37.50367,-122.26243,610 Elm St.,San Carlos,94070,San Mateo,(833) 937-7625
Sanchez Library,San Mateo County Libraries,37.58445,-122.47635,1111 Terra Nova Blvd.,Pacifica,94044,San Mateo,(833) 937-7625
Woodside Library,San Mateo County Libraries,37.42919,-122.25808,3140 Woodside Rd.,Woodside,94062,San Mateo,(833) 937-7625
Hillsdale Branch Library,San Mateo Public Library,37.53343,-122.30468,205 W. Hillsdale Blvd.,San Mateo,94403,San Mateo,(650) 522-7880
Marina Branch Library,San Mateo Public Library,37.55641,-122.29308,1530 Susan Court,San Mateo,94403,San Mateo,(650) 522-7890
San Mateo Public Library,San Mateo Public Library,37.56197,-122.32674,55 West Third Ave.,San Mateo,94402,San Mateo,(650) 522-7800
Northgate Pop-Up Library,San Rafael Public Library,38.00422,-122.54420,5800 Northgate Drive,San Rafael,94903,Marin,(415) 524-2694
Pickleweed Library,San Rafael Public Library,37.96805,-122.49776,50 Canal St.,San Rafael,94901,Marin,(415) 485-3483
San Rafael Public Library,San Rafael Public Library,37.97503,-122.53261,1100 E St.,San Rafael,94901,Marin,(415) 485-3323
El Salvador Community Center,Santa Ana,33.75180,-117.89446,1825 W Civic Center,Santa Ana,92703,Orange,(714) 647-5296
Garfield Community Center,Santa Ana Public Library,33.74907,-117.86042,501 N. Lacy St,Santa Ana,92701,Orange,(714) 571-4278
Jerome Teenspace,Santa Ana Public Library,33.73742,-117.89881,726 S. Center St.,Santa Ana,92704,Orange,(714) 647-6559
Newhope Library Learning Center,Santa Ana Public Library,33.74589,-117.92916,122 N. Newhope,Santa Ana,92703,Orange,(714) 647-5197
Roosevelt-Walker Community Center,Santa Ana Public Library,33.74231,-117.85730,816 Chestnut Ave.,Santa Ana,92701,Orange,(714) 571-4229
Santa Ana Public Library,Santa Ana Public Library,33.75114,-117.87317,26 Civic Center Plaza,Santa Ana,92701,Orange,(714) 647-5267
Carpinteria Library,Santa Barbara Public Library,34.39744,-119.51704,5141 Carpinteria Ave.,Carpinteria,93013,Santa Barbara,(805) 684-4314
Eastside Library,Santa Barbara Public Library,34.42657,-119.68005,1102 E. Montecito St.,Santa Barbara,93103,Santa Barbara,(805) 963-3727
Montecito Library,Santa Barbara Public Library,34.43672,-119.63348,1469 E. Valley Rd,Montecito,93108,Santa Barbara,(805) 969-5063
Santa Barbara Public Library,Santa Barbara Public Library,34.42398,-119.70332,40 E. Anapamu St.,Santa Barbara,93101,Santa Barbara,(805) 962-7653
Mission Library Family Reading Center,Santa Clara City Library,37.34728,-121.94487,1098 Lexington Street,Santa Clara,95050,Santa Clara,(408) 615-2964
Northside Branch Library,Santa Clara City Library,37.39569,-121.94687,695 Moreland Way,Santa Clara,95054,Santa Clara,(408) 615-5500
Santa Clara City Library - Central Park Library,Santa Clara City Library,37.34053,-121.97357,2635 Homestead Road,Santa Clara,95051,Santa Clara,(408) 615-2930
Campbell Library,Santa Clara County Library,37.28824,-121.94327,1 West Campbell Ave. Room E46,Campbell,95008,Santa Clara,(408) 866-1991
Cupertino Library,Santa Clara County Library,37.31779,-122.02896,10800 Torre Ave.,Cupertino,95014,Santa Clara,(408) 446-1677
Gilroy Library,Santa Clara County Library,37.00505,-121.57281,350 W 6Th Street,Gilroy,95020,Santa Clara,(408) 842-8208
Los Altos Library,Santa Clara County Library,37.38088,-122.11330,13 S. San Antonio Rd.,Los Altos,94022,Santa Clara,(650) 948-7683
Milpitas Library,Santa Clara County Library,37.43245,-121.90651,160 N Main St,Milpitas,95035,Santa Clara,(408) 262-1171
Morgan Hill Library,Santa Clara County Library,37.12414,-121.66280,660 W. Main,Morgan Hill,95037,Santa Clara,(408) 779-3196
Saratoga Library,Santa Clara County Library,37.27012,-122.01511,13650 Saratoga Ave.,Saratoga,95070,Santa Clara,(408) 867-6126
Woodland Library,Santa Clara County Library,37.34427,-122.07544,1975 Grant Rd.,Los Altos,94024,Santa Clara,(650) 969-6030
Canyon Country Library,Santa Clarita Public Library,34.41648,-118.45906,18601 Soledad Cyn. Rd.,Santa Clarita,91351,Los Angeles,(661) 259-0750
Newhall Library,Santa Clarita Public Library,34.38162,-118.53028,24500 Main St.,Santa Clarita,91321,Los Angeles,(661) 259-0750
Valencia Library,Santa Clarita Public Library,34.41540,-118.55089,23743 Valencia Blvd.,Santa Clarita,91355,Los Angeles,(661) 259-0750
Aptos Branch Library,Santa Cruz Public Libraries,36.98106,-121.90883,7695 Soquel Dr.,Aptos,95003,Santa Cruz,(831) 427-7722
Boulder Creek Branch Library,Santa Cruz Public Libraries,37.12751,-122.12384,13390 W. Park Ave.,Boulder Creek,95006,Santa Cruz,(831) 427-7723
Branciforte Branch Library,Santa Cruz Public Libraries,36.97924,-122.00742,230 Gault St.,Santa Cruz,95062,Santa Cruz,(831) 427-7724
Capitola Branch Library,Santa Cruz Public Libraries,36.97872,-121.96067,2005 Wharf Rd,Capitola,95010,Santa Cruz,(831) 427-7725
Central Branch Library,Santa Cruz Public Libraries,36.97458,-122.02861,224 Church St.,Santa Cruz,95060,Santa Cruz,(831) 427-7701
Felton Branch Library,Santa Cruz Public Libraries,37.05294,-122.07431,6299 Gushee St.,Felton,95018,Santa Cruz,(831) 427-7728
Garfield Park Branch Library,Santa Cruz Public Libraries,36.95804,-122.03835,705 Woodrow Ave.,Santa Cruz,95060,Santa Cruz,(831) 427-7729
La Selva Beach Branch Library,Santa Cruz Public Libraries,36.93762,-121.86342,314 Estrella,La Selva Beach,95076,Santa Cruz,(831) 427-7710
Live Oak Branch Library,Santa Cruz Public Libraries,36.96277,-121.98046,2380 Portola Dr.,Santa Cruz,95062,Santa Cruz,(831) 427-7718
Scotts Valley Branch Library,Santa Cruz Public Libraries,37.04962,-122.02856,251 Kings Village Road,Scotts Valley,95066,Santa Cruz,(831) 427-7719
Santa Fe Springs City Library,Santa Fe Springs City Library,33.94629,-118.08372,11700 E. Telegraph Rd.,Santa Fe Springs,90670,Los Angeles,(562) 868-7738
William C. Gordon Learning Center,Santa Fe Springs City Library,33.95878,-118.08545,9255 Pioneer Blvd,Santa Fe Springs,90670,Los Angeles,(562) 692-0261
Cuyama Library,Santa Maria Public Library,34.94529,-119.68280,4689 Highway 166,Cuyama,93254,Santa Barbara,(661) 766-2490
Guadalupe Library,Santa Maria Public Library,34.95777,-120.57787,"4719 W. Main St., Unit D",Guadalupe,93434,Santa Barbara,(805) 343-1405
Los Alamos Library,Santa Maria Public Library,34.74063,-120.27822,405 Helena St,Los Alamos,93440,Santa Barbara,(805) 344-1025
Orcutt Library,Santa Maria Public Library,34.86472,-120.44825,175 S. Broadway,Orcutt,93455,Santa Barbara,(805) 937-6483
Santa Maria Public Library,Santa Maria Public Library,34.94857,-120.43531,421 S. Mcclelland St.,Santa Maria,93454,Santa Barbara,(805) 925-0994
Fairview Branch Library,Santa Monica Public Library,34.01469,-118.46363,2101 Ocean Park Blvd.,Santa Monica,90405,Los Angeles,(310) 458-8681
Montana Avenue Branch Library,Santa Monica Public Library,34.03453,-118.49194,1704 Montana Ave.,Santa Monica,90403,Los Angeles,(310) 458-8682
Ocean Park Branch Library,Santa Monica Public Library,34.00281,-118.48356,2601 Main St.,Santa Monica,90405,Los Angeles,(310) 458-8683
Pico Branch Library,Santa Monica Public Library,34.02121,-118.46819,2201 Pico Blvd.,Santa Monica,90405,Los Angeles,(310) 458-8684
Santa Monica Public Library,Santa Monica Public Library,34.01853,-118.49336,601 Santa Monica Blvd,Santa Monica,90401,Los Angeles,(310) 458-8600
Sausalito Public Library,Sausalito Public Library,37.85965,-122.48887,420 Litho St.,Sausalito,94965,Marin,(415) 289-4121
Shafter Library,Shafter Library,35.50385,-119.27750,"236 James Street, Suite 2",Shafter,93263,Kern,(661) 746-2156
Anderson Library,Shasta Public Libraries,40.45147,-122.30392,3200 W. Center St.,Anderson,96007,Shasta,(530) 365-7685
Burney Library,Shasta Public Libraries,40.88469,-121.66987,37038 Siskiyou St.,Burney,96013,Shasta,(530) 335-4317
Redding Library,Shasta Public Libraries,40.57377,-122.38528,1100 Parkview Avenue,Redding,96001,Shasta,(530) 245-7250
Sierra Madre Public Library,Sierra Madre Public Library,34.16148,-118.06201,440 W. Sierra Madre Blvd.,Sierra Madre,91024,Los Angeles,(626) 355-7186
Signal Hill Public Library,Signal Hill Public Library,33.79682,-118.16962,1780 East Hill St.,Signal Hill,90755,Los Angeles,(562) 989-7323
Simi Valley Public Library,Simi Valley Public Library,34.28896,-118.71934,2969 Tapo Canyon Rd,Simi Valley,93063,Ventura,(805) 526-1735
Dunsmuir Branch Library,Siskiyou County Free Library,41.21172,-122.27143,5714 Dunsmuir Ave.,Dunsmuir,96025,Siskiyou,(530) 235-2035
Etna Branch Library,Siskiyou County Free Library,41.45698,-122.89304,101 Collier Way,Etna,96027,Siskiyou,(530) 467-3400
Fort Jones Branch Library,Siskiyou County Free Library,41.60698,-122.83961,11960 East St.,Fort Jones,96032,Siskiyou,(530) 468-2383
Mccloud Branch Library,Siskiyou County Free Library,41.25578,-122.13189,300 Columbero Dr.,Mccloud,96057,Siskiyou,(530) 964-2169
Montague Branch Library,Siskiyou County Free Library,41.72775,-122.53199,230 S 13Th St.,Montague,96064,Siskiyou,(530) 459-5473
Mt. Shasta Branch Library,Siskiyou County Free Library,41.31814,-122.30983,515 Alma St.,Mt. Shasta,96067,Siskiyou,(530) 926-2031
Siskiyou County Free Library Yreka,Siskiyou County Free Library,41.72667,-122.63970,719 Fourth St.,Yreka,96097,Siskiyou,(530) 841-4175
Tulelake Branch Library,Siskiyou County Free Library,41.95549,-121.47702,451 Main Street,Tulelake,96134,Siskiyou,(530) 667-2291
Weed Branch Library,Siskiyou County Free Library,41.42708,-122.38552,150 Alamo Ave,Weed,96094,Siskiyou,(530) 938-4769
Dixon Library,Solano County Library,38.44685,-121.82205,230 N. 1St St.,Dixon,95620,Solano,(866) 572-7587
Fairfield Civic Center Library,Solano County Library,38.25205,-122.04814,1150 Kentucky St.,Fairfield,94533,Solano,(866) 572-7587
Fairfield Cordelia Library,Solano County Library,38.21808,-122.14400,5050 Business Center Dr.,Fairfield,94534,Solano,(866) 572-7587
John F. Kennedy Library,Solano County Library,38.10169,-122.26069,505 Santa Clara St.,Vallejo,94590,Solano,(866) 572-7587
Rio Vista Library,Solano County Library,38.15616,-121.69251,44 S. Second St.,Rio Vista,94571,Solano,(866) 572-7587
Springstowne Library,Solano County Library,38.10409,-122.21827,1003 Oakwood Ave.,Vallejo,94591,Solano,(866) 572-7587
Suisun City Library,Solano County Library,38.24886,-122.01000,601 Pintail Dr.,Suisun City,94585,Solano,(866) 572-7587
Vacaville Public Library - Cultural Center,Solano County Library,38.35566,-121.96246,1020 Ulatis Dr.,Vacaville,95687,Solano,(866) 572-7587
Vacaville Public Library - Town Square,Solano County Library,38.35738,-121.98726,1 Town Square Place,Vacaville,95688,Solano,(866) 572-7587
Central Santa Rosa Library,Sonoma County Library,38.44122,-122.71062,211 E Street,Santa Rosa,95404,Sonoma,(707) 308-3020
Cloverdale Regional Library,Sonoma County Library,38.80871,-123.02002,401 N. Cloverdale Blvd.,Cloverdale,95425,Sonoma,(707) 894-5271
Forestville Community Library,Sonoma County Library,38.48158,-122.88930,7050 Covey Road,Forestville,95436,Sonoma,(707) 887-7654
Guerneville Regional Library,Sonoma County Library,38.50379,-122.99732,14107 Armstrong Woods Road,Guerneville,95446,Sonoma,(707) 869-9004
Healdsburg Regional Library,Sonoma County Library,38.61444,-122.86990,139 Piper Street,Healdsburg,95448,Sonoma,(707) 433-3772
Northwest Santa Rosa Library,Sonoma County Library,38.45915,-122.73093,150 Coddingtown Center,Santa Rosa,95401,Sonoma,(707) 546-2265
Occidental Community Library,Sonoma County Library,38.40622,-122.94739,73 Main Street,Occidental,95465,Sonoma,(707) 874-3080
Petaluma Regional Library,Sonoma County Library,38.24232,-122.63172,100 Fairgrounds Drive,Petaluma,94952,Sonoma,(707) 763-9801
Rincon Valley Regional Library,Sonoma County Library,38.47904,-122.66121,6959 Montecito Blvd,Santa Rosa,95409,Sonoma,(707) 537-0162
Rohnert Park-Cotati Regional Library,Sonoma County Library,38.34885,-122.70365,6250 Lynne Conde Way,Rohnert Park,94928,Sonoma,(707) 584-9121
Roseland Regional Library,Sonoma County Library,38.43034,-122.72955,470 Sebastopol Road,Santa Rosa,95407,Sonoma,(707) 755-2029
Sebastopol Regional Library,Sonoma County Library,38.40207,-122.82559,7140 Bodega Avenue,Sebastopol,95472,Sonoma,(707) 823-7691
Sonoma County History & Genealogy,Sonoma County Library,38.44127,-122.71063,725 3Rd Street,Santa Rosa,95404,Sonoma,(707) 308-3212
Sonoma Valley Regional Library,Sonoma County Library,38.29296,-122.47282,755 West Napa Street,Sonoma,95476,Sonoma,(707) 996-5217
Windsor Regional Library,Sonoma County Library,38.54947,-122.81405,"9291 Old Redwood Hwy, Bldg. 100",Windsor,95492,Sonoma,(707) 838-1020
South Pasadena Public Library,South Pasadena Public Library,34.11417,-118.15586,1100 Oxley St.,South Pasadena,91030,Los Angeles,(626) 403-7330
Community Learning Center,South San Francisco Public Library,37.65833,-122.41675,520 Tamarack Lane,South San Francisco,94080,San Mateo,(650) 877-8540
Grand Avenue Library,South San Francisco Public Library,37.65639,-122.41394,306 Walnut Ave.,South San Francisco,94080,San Mateo,(650) 877-8530
South San Francisco Main Library,South San Francisco Public Library,37.65251,-122.43677,840 W. Orange Ave.,South San Francisco,94080,San Mateo,(650) 829-3860
St. Helena Public Library,St. Helena Public Library,38.50785,-122.46961,1492 Library Lane,St. Helena,94574,Napa,(707) 963-5244
Ceres Library,Stanislaus County Free Library,37.59295,-120.95495,2250 Magnolia,Ceres,95307,Stanislaus,(209) 537-8938
Denair Library,Stanislaus County Free Library,37.52747,-120.79349,4801 Kersey Rd.,Denair,95316,Stanislaus,(209) 634-1283
Empire Library,Stanislaus County Free Library,37.63752,-120.89896,98 I Street,Empire,95319,Stanislaus,(209) 524-5505
Hughson Library,Stanislaus County Free Library,37.59602,-120.86633,2412 3Rd St.,Hughson,95326,Stanislaus,(209) 883-2293
Keyes Library,Stanislaus County Free Library,37.55352,-120.90920,4420 Maud Ave.,Keyes,95328,Stanislaus,(209) 664-8006
Modesto Library,Stanislaus County Free Library,37.64320,-120.99355,1500 I St.,Modesto,95354,Stanislaus,(209) 558-7801
Newman Library,Stanislaus County Free Library,37.31635,-121.02771,1305 Kern St.,Newman,95360,Stanislaus,(209) 862-2010
Oakdale Library,Stanislaus County Free Library,37.76470,-120.84877,151 S. First Ave.,Oakdale,95361,Stanislaus,(209) 847-4204
Patterson Library,Stanislaus County Free Library,37.47166,-121.13170,46 N. Salado,Patterson,95363,Stanislaus,(209) 892-6473
Riverbank Library,Stanislaus County Free Library,37.73565,-120.93273,3442 Santa Fe Ave.,Riverbank,95367,Stanislaus,(209) 869-7008
Salida Library,Stanislaus County Free Library,37.70819,-121.07848,4835 Sisk Rd.,Salida,95368,Stanislaus,(209) 543-7353
Turlock Library,Stanislaus County Free Library,37.49789,-120.83946,550 Minaret Ave.,Turlock,95380,Stanislaus,(209) 664-8100
Waterford Library,Stanislaus County Free Library,37.64212,-120.76092,324 E St.,Waterford,95386,Stanislaus,(209) 874-2191
Arnold Rue Micro Library,Stockton-San Joaquin County Public Library,38.01108,-121.28280,5758 Lorraine Ave.,Stockton,95210,San Joaquin,(209) 937-8221
Escalon Library,Stockton-San Joaquin County Public Library,37.79499,-120.99225,1540 Second St.,Escalon,95320,San Joaquin,(866) 805-7323
Fair Oaks Library,Stockton-San Joaquin County Public Library,37.95486,-121.25615,2370 E. Main St.,Stockton,95205,San Joaquin,(209) 937-8221
Lathrop Library,Stockton-San Joaquin County Public Library,37.82547,-121.30011,450 Spartan Wy,Lathrop,95330,San Joaquin,(866) 805-7323
Linden Library,Stockton-San Joaquin County Public Library,38.02161,-121.08298,19059 E. Main St.,Linden,95236,San Joaquin,(866) 805-7323
Manteca Library,Stockton-San Joaquin County Public Library,37.79880,-121.21975,320 W. Center St.,Manteca,95336,San Joaquin,(866) 805-7323
Maya Angelou Library,Stockton-San Joaquin County Public Library,37.93417,-121.24645,2324 Pock Lane,Stockton,95205,San Joaquin,(209) 937-8221
Mountain House Library,Stockton-San Joaquin County Public Library,37.77879,-121.53649,201 East Main Street,Mountain House,95391,San Joaquin,(209) 805-7323
Ripon Library,Stockton-San Joaquin County Public Library,37.73961,-121.12626,333 W. Main St.,Ripon,95366,San Joaquin,(866) 805-7323
Cesar Chavez Central Library,Stockton-San Joaquin County Public Library,37.95887,-121.29223,605 N. El Dorado St.,Stockton,95202,San Joaquin,(209) 937-8221
Stribley Micro Library,Stockton-San Joaquin County Public Library,37.95196,-121.26615,1760 E. Sonora St.,Stockton,95205,San Joaquin,(209) 937-8221
Thornton Library,Stockton-San Joaquin County Public Library,38.22585,-121.42390,26341 N. Thornton Rd.,Thornton,95686,San Joaquin,(866) 805-7323
Tracy Branch Library,Stockton-San Joaquin County Public Library,37.74262,-121.42522,20 E. Eaton Ave,Tracy,95376,San Joaquin,(866) 805-7323
Margaret Troke Library,Stockton-San Joaquin County Public Library,38.01137,-121.31761,502 W. Benjamin Holt Dr.,Stockton,95207,San Joaquin,(209) 937-8221
Weston Ranch Library,Stockton-San Joaquin County Public Library,37.89771,-121.30656,1453 W. French Camp Road,Stockton,95206,San Joaquin,(209) 937-8221
Van Buskirk,Stockton-San Joaquin County Public Library,37.91904,-121.29680,734 Houston Ave.,Stockton,95206,San Joaquin,(209) 937-7358
Sunnyvale Public Library,Sunnyvale Public Library,37.37164,-122.03920,665 W. Olive Ave.,Sunnyvale,94086,Santa Clara,(408) 730-7314
Barber Branch Library,Sutter County Library,39.28093,-121.66099,10321 Live Oak Blvd.,Live Oak,95953,Sutter,(530) 695-2021
Sutter Branch Library,Sutter County Library,39.15904,-121.74872,2147 California St.,Sutter,95982,Sutter,(530) 755-0485
Sutter County Library,Sutter County Library,39.13753,-121.62466,750 Forbes Ave.,Yuba City,95991,Sutter,(530) 822-7137
Corning Branch Library,Tehama County Library,39.92871,-122.17991,740 Third St.,Corning,96021,Tehama,(530) 824-7050
Los Molinos Branch Library,Tehama County Library,40.02127,-122.10027,7881 Highway 99E,Los Molinos,96055,Tehama,(530) 384-2772
Tehama County Library,Tehama County Library,40.16329,-122.22688,545 Diamond Ave.,Red Bluff,96080,Tehama,(530) 527-0604
Newbury Park Branch Library,Thousand Oaks Library,34.18179,-118.92871,2331 Borchard Road,Newbury Park,91320,Ventura,(805) 498-2139
Thousand Oaks Library,Thousand Oaks Library,34.20122,-118.85267,1401 E. Janss Rd.,Thousand Oaks,91362,Ventura,(805) 449-2660
El Retiro Branch Library,Torrance Public Library,33.81566,-118.37894,126 Vista Del Parque,Redondo Beach,90277,Los Angeles,(310) 375-0922
Henderson Branch Library,Torrance Public Library,33.84156,-118.36459,4805 Emerald St.,Torrance,90503,Los Angeles,(310) 371-2075
Katy Geissert Civic Center Library,Torrance Public Library,33.83781,-118.34318,3301 Torrance Blvd.,Torrance,90503,Los Angeles,(310) 618-5950
North Torrance Branch Library,Torrance Public Library,33.87256,-118.33547,3604 Artesia Blvd.,Torrance,90504,Los Angeles,(310) 323-7200
Southeast Branch Library,Torrance Public Library,33.81535,-118.32021,23115 S. Arlington Ave.,Torrance,90501,Los Angeles,(310) 530-5044
Walteria Branch Library,Torrance Public Library,33.80455,-118.35303,3815 W. 242Nd St.,Torrance,90505,Los Angeles,(310) 375-8418
Hayfork Branch Library,Trinity County Free Library,40.55283,-123.19127,6641 A State Hwy. 3,Hayfork,96041,Trinity,(530) 628-5427
Trinity Center Branch Library,Trinity County Free Library,40.98640,-122.70171,"Scott Museum, Airport Rd.",Trinity Center,96091,Trinity,(530) 266-3242
Trinity County Free Library,Trinity County Free Library,40.73548,-122.94239,351 Main St.,Weaverville,96093,Trinity,(530) 623-1373
Alpaugh Branch Library,Tulare County Free Library,35.88788,-119.48686,3816 Ave. 54,Alpaugh,93201,Tulare,(559) 949-8355
Dinuba Branch Library,Tulare County Free Library,36.54328,-119.38707,150 S. I St.,Dinuba,93618,Tulare,(559) 591-5828
Earlimart Library,Tulare County Free Library,35.88492,-119.26914,780 E. Washington St.,Earlimart,93219,Tulare,(661) 849-2525
Exeter Library,Tulare County Free Library,36.29403,-119.13856,230 E. Chestnut,Exeter,93221,Tulare,(559) 592-5361
Farmersville Branch Library,Tulare County Free Library,36.30206,-119.20293,623 N. Avery Ave.,Farmersville,93223,Tulare,(559) 592-0001
Ivanhoe Library,Tulare County Free Library,36.38717,-119.21789,15964 Heather,Ivanhoe,93235,Tulare,(559) 798-1264
Lindsay Library,Tulare County Free Library,36.20357,-119.08949,157 N Mirage St,Lindsay,93247,Tulare,(559) 562-3021
London Branch Library,Tulare County Free Library,36.47698,-119.44491,5711 Ave. 378,Dinuba,93618,Tulare,(559) 591-1017
Orosi Branch Library,Tulare County Free Library,36.54498,-119.29043,12646 Ave. 416,Orosi,93647,Tulare,(559) 591-5830
Pixley Library,Tulare County Free Library,35.96533,-119.29142,"927 S Center St, #B",Pixley,93256,Tulare,(559) 757-1010
Springville Library,Tulare County Free Library,36.13374,-118.81300,35800 Hwy 190 (Sequoia Dawn),Springville,93265,Tulare,(559) 539-2624
Strathmore Library,Tulare County Free Library,36.14650,-119.05804,19646 Road 230,Strathmore,93267,Tulare,(559) 568-1087
Terra Bella Library,Tulare County Free Library,35.95579,-119.03967,23825 Ave. 92,Terra Bella,93270,Tulare,(559) 535-5583
Three Rivers Library,Tulare County Free Library,36.44222,-118.90123,42052 Eggers Dr.,Three Rivers,93271,Tulare,(559) 561-4564
Tipton Library,Tulare County Free Library,36.06079,-119.31029,301 E. Woods Ave.,Tipton,93272,Tulare,(559) 752-4236
Visalia Branch Library,Tulare County Free Library,36.33212,-119.29346,200 W. Oak,Visalia,93291,Tulare,(559) 713-2700
Woodlake Library,Tulare County Free Library,36.42020,-119.10282,400 W. Whitney,Woodlake,93286,Tulare,(559) 564-4824
Tulare Public Library,Tulare Public Library,36.21321,-119.34513,475 North M Street,Tulare,93274,Tulare,(559) 685-4500
Groveland Branch,Tuolumne County Library,37.84045,-120.22562,18990 Hwy 120,Groveland,95321,Tuolumne,(209) 962-6144
Tuolumne City Library,Tuolumne County Library,37.96086,-120.23970,18636 Main St.,Tuolumne,95379,Tuolumne,(209) 928-3612
Tuolumne County Library,Tuolumne County Library,37.98257,-120.36910,480 Greenley Rd.,Sonora,95370,Tuolumne,(209) 533-5945
Twain Harte Library,Tuolumne County Library,38.03907,-120.22545,18701 Tiffeni Suite 1F,Twain Harte,95383,Tuolumne,(209) 586-4501
Upland Public Library,Upland Public Library,34.09881,-117.65031,450 N. Euclid Ave,Upland,91786,San Bernardino,(909) 931-4200
Avenue Library,Ventura County Library,34.28868,-119.29845,606 N. Ventura Ave.,Ventura,93001,Ventura,(805) 643-6393
E. P. Foster Library,Ventura County Library,34.28122,-119.29085,651 E. Main St.,Ventura,93001,Ventura,(805) 648-2715
Fillmore Library,Ventura County Library,34.40463,-118.91498,502 Second St.,Fillmore,93015,Ventura,(805) 524-3355
Hill Road Library,Ventura County Library,34.26762,-119.20642,1070 S. Hill Rd.,Ventura,93003,Ventura,(805) 677-7180
Meiners Oaks Library,Ventura County Library,34.44925,-119.27781,114 N. Padre Juan Ave.,Meiners Oaks,93023,Ventura,(805) 646-4804
Oak Park Library,Ventura County Library,34.18050,-118.76490,899 N Kanan Rd.,Oak Park,91377,Ventura,(818) 889-2239
Oak View Library,Ventura County Library,34.39968,-119.30515,555 Mahoney Ave.,Oak View,93022,Ventura,(805) 649-1523
Ojai Library,Ventura County Library,34.44739,-119.24669,111 E. Ojai Ave.,Ojai,93023,Ventura,(805) 646-1639
Piru Library,Ventura County Library,34.41562,-118.79802,3811 Center St.,Piru,93040,Ventura,(805) 521-1753
Ray D. Prueter - Port Hueneme Library,Ventura County Library,34.15676,-119.19294,510 Park Ave.,Port Hueneme,93041,Ventura,(805) 486-5460
Saticoy Library,Ventura County Library,34.28357,-119.14810,1292 Los Angeles Ave.,Ventura,93004,Ventura,(805) 671-5148
Soliz Library,Ventura County Library,34.23710,-119.16825,2820 Jourdan St.,Oxnard,93036,Ventura,(805) 485-4515
Museum Of Ventura County Research Library,Ventura County Library,34.28066,-119.29931,100 E. Main St.,Ventura,93001,Ventura,(805) 653-0323
Victorville City Library,Victorville City Library,34.52315,-117.30357,15011 Circle Drive,Victorville,92395,San Bernardino,(760) 245-4222
Freedom Branch Library,Watsonville Public Library,36.93796,-121.77782,2021 Freedom Blvd.,Freedom,95019,Santa Cruz,(831) 768-3420
Watsonville Main Library,Watsonville Public Library,36.90854,-121.75563,"275 Main St., Suite 100",Watsonville,95076,Santa Cruz,(831) 768-3400
Transit Depot,Whittier Public Library,33.97453,-118.04031,7333 Greenleaf Avenue,Whittier,90602,Los Angeles,(562) 567-9900
Whittier Public Library,Whittier Public Library,33.97405,-118.03949,7344 S. Washington Ave.,Whittier,90602,Los Angeles,(562) 567-9900
Whittwood Branch Library,Whittier Public Library,33.93982,-117.99359,10537 Santa Gertrudes Ave.,Whittier,90603,Los Angeles,(562) 567-9950
Bayliss Branch Library,Willows Public Library,39.58279,-122.04674,7830 Road 39,Glenn,95943,Glenn,(916) 934-2287
Elk Creek Branch Library,Willows Public Library,39.60709,-122.53888,3432 County Road 309,Elk Creek,95939,Glenn,(916) 968-5238
Willows Public Library,Willows Public Library,39.52188,-122.20006,201 N. Lassen St.,Willows,95988,Glenn,(530) 934-5156
Woodland Public Library,Woodland Public Library,38.67924,-121.77382,250 First St.,Woodland,95695,Yolo,(530) 661-5980
A. F. Turner Community Library,Yolo County Library,38.58022,-121.52335,1212 Merkley Avenue,West Sacramento,95691,Yolo,(916) 375-6465
Clarksburg Branch Library,Yolo County Library,38.41614,-121.52655,52915 Netherlands Ave.,Clarksburg,95612,Yolo,(916) 744-1755
Mary L. Stephens Davis Branch Library,Yolo County Library,38.55685,-121.74706,315 E. 14Th St.,Davis,95616,Yolo,(530) 757-5593
Esparto Regional Library,Yolo County Library,38.69249,-122.01630,17065 Yolo Ave.,Esparto,95627,Yolo,(530) 787-3426
Knights Landing Branch Library,Yolo County Library,38.80030,-121.71792,42351 Third St.,Knights Landing,95645,Yolo,(530) 735-6593
Winters Community Library,Yolo County Library,38.52565,-121.97153,708 Railroad Avenue,Winters,95694,Yolo,(530) 795-4955
Yolo Branch Library,Yolo County Library,38.73321,-121.80744,37750 Sacramento St.,Yolo,95697,Yolo,(530) 662-2363
Yorba Linda Public Library,Yorba Linda Public Library,33.89108,-117.81512,4852 Lakeview Ave.,Yorba Linda,92886,Orange,(714) 777-2873
Yuba County Library,Yuba County Library,39.13765,-121.58757,303 Second St.,Marysville,95901,Yuba,(530) 749-7380
